{
"type": "FeatureCollection",
"name": "ciudad-autonoma-de-buenos-aires",
"crs": { "type": "name", "properties": { "name": "urn:ogc:def:crs:OGC:1.3:CRS84" } },
"xy_coordinate_resolution": 0.0001,
"features": [
{ "type": "Feature", "properties": { "nombre": "Camino sin nombre", "longitud_km": 1.13 }, "geometry": { "type": "LineString", "coordinates": [ [ -58.5292, -34.6667 ], [ -58.5181, -34.6623 ] ] } },
{ "type": "Feature", "properties": { "nombre": "Camino sin nombre", "longitud_km": 0.03 }, "geometry": { "type": "LineString", "coordinates": [ [ -58.5019, -34.6742 ], [ -58.5021, -34.6741 ] ] } },
{ "type": "Feature", "properties": { "nombre": "Camino sin nombre", "longitud_km": 0.03 }, "geometry": { "type": "LineString", "coordinates": [ [ -58.5023, -34.6741 ], [ -58.502, -34.6743 ] ] } },
{ "type": "Feature", "properties": { "nombre": "Camino sin nombre", "longitud_km": 0.03 }, "geometry": { "type": "LineString", "coordinates": [ [ -58.5085, -34.6695 ], [ -58.5083, -34.6693 ] ] } },
{ "type": "Feature", "properties": { "nombre": "Avenida Rivadavia", "longitud_km": 14.96 }, "geometry": { "type": "LineString", "coordinates": [ [ -58.5301, -34.6394 ], [ -58.4775, -34.6329 ], [ -58.4197, -34.6112 ], [ -58.3734, -34.6085 ] ] } },
{ "type": "Feature", "properties": { "nombre": "Av.27 de Febrero", "longitud_km": 6.75 }, "geometry": { "type": "LineString", "coordinates": [ [ -58.4161, -34.6581 ], [ -58.4264, -34.6631 ], [ -58.4616, -34.7049 ] ] } },
{ "type": "Feature", "properties": { "nombre": "Camino sin nombre", "longitud_km": 10.06 }, "geometry": { "type": "LineString", "coordinates": [ [ -58.4673, -34.5352 ], [ -58.4432, -34.5617 ], [ -58.3819, -34.5888 ] ] } },
{ "type": "Feature", "properties": { "nombre": "Camino sin nombre", "longitud_km": 0.66 }, "geometry": { "type": "LineString", "coordinates": [ [ -58.381, -34.5919 ], [ -58.3871, -34.5889 ] ] } },
{ "type": "Feature", "properties": { "nombre": "Camino sin nombre", "longitud_km": 1.12 }, "geometry": { "type": "LineString", "coordinates": [ [ -58.3871, -34.5889 ], [ -58.3916, -34.5983 ] ] } },
{ "type": "Feature", "properties": { "nombre": "Camino sin nombre", "longitud_km": 10.37 }, "geometry": { "type": "LineString", "coordinates": [ [ -58.3916, -34.5983 ], [ -58.4125, -34.5909 ], [ -58.452, -34.566 ], [ -58.4759, -34.5388 ] ] } },
{ "type": "Feature", "properties": { "nombre": "Camino sin nombre", "longitud_km": 0.5 }, "geometry": { "type": "LineString", "coordinates": [ [ -58.5305, -34.6161 ], [ -58.5266, -34.613 ] ] } },
{ "type": "Feature", "properties": { "nombre": "Camino sin nombre", "longitud_km": 11.89 }, "geometry": { "type": "LineString", "coordinates": [ [ -58.4054, -34.6102 ], [ -58.4487, -34.6072 ], [ -58.4977, -34.596 ], [ -58.5266, -34.613 ] ] } },
{ "type": "Feature", "properties": { "nombre": "Camino sin nombre", "longitud_km": 1.27 }, "geometry": { "type": "LineString", "coordinates": [ [ -58.3916, -34.5983 ], [ -58.3911, -34.6098 ] ] } },
{ "type": "Feature", "properties": { "nombre": "Camino sin nombre", "longitud_km": 1.32 }, "geometry": { "type": "LineString", "coordinates": [ [ -58.4054, -34.6102 ], [ -58.3911, -34.6098 ] ] } },
{ "type": "Feature", "properties": { "nombre": "Camino sin nombre", "longitud_km": 1.95 }, "geometry": { "type": "LineString", "coordinates": [ [ -58.381, -34.5919 ], [ -58.3808, -34.6095 ] ] } },
{ "type": "Feature", "properties": { "nombre": "Camino sin nombre", "longitud_km": 0.94 }, "geometry": { "type": "LineString", "coordinates": [ [ -58.3911, -34.6098 ], [ -58.3808, -34.6095 ] ] } },
{ "type": "Feature", "properties": { "nombre": "Camino sin nombre", "longitud_km": 2.31 }, "geometry": { "type": "LineString", "coordinates": [ [ -58.3712, -34.6093 ], [ -58.3723, -34.5977 ], [ -58.381, -34.5919 ] ] } },
{ "type": "Feature", "properties": { "nombre": "Camino sin nombre", "longitud_km": 0.88 }, "geometry": { "type": "LineString", "coordinates": [ [ -58.3808, -34.6095 ], [ -58.3712, -34.6093 ] ] } },
{ "type": "Feature", "properties": { "nombre": "Camino sin nombre", "longitud_km": 1.47 }, "geometry": { "type": "LineString", "coordinates": [ [ -58.3808, -34.6095 ], [ -58.3804, -34.6228 ] ] } },
{ "type": "Feature", "properties": { "nombre": "Camino sin nombre", "longitud_km": 1.46 }, "geometry": { "type": "LineString", "coordinates": [ [ -58.3712, -34.6093 ], [ -58.3698, -34.6224 ] ] } },
{ "type": "Feature", "properties": { "nombre": "Camino sin nombre", "longitud_km": 1.51 }, "geometry": { "type": "LineString", "coordinates": [ [ -58.3911, -34.6098 ], [ -58.3905, -34.6234 ] ] } },
{ "type": "Feature", "properties": { "nombre": "Camino sin nombre", "longitud_km": 1.9 }, "geometry": { "type": "LineString", "coordinates": [ [ -58.4172, -34.6277 ], [ -58.4169, -34.6106 ] ] } },
{ "type": "Feature", "properties": { "nombre": "Camino sin nombre", "longitud_km": 4.0 }, "geometry": { "type": "LineString", "coordinates": [ [ -58.5266, -34.613 ], [ -58.4937, -34.6367 ] ] } },
{ "type": "Feature", "properties": { "nombre": "Camino sin nombre", "longitud_km": 3.55 }, "geometry": { "type": "LineString", "coordinates": [ [ -58.5259, -34.6556 ], [ -58.4905, -34.6425 ] ] } },
{ "type": "Feature", "properties": { "nombre": "Camino sin nombre", "longitud_km": 2.91 }, "geometry": { "type": "LineString", "coordinates": [ [ -58.3682, -34.6229 ], [ -58.3489, -34.6437 ] ] } },
{ "type": "Feature", "properties": { "nombre": "Camino sin nombre", "longitud_km": 3.38 }, "geometry": { "type": "LineString", "coordinates": [ [ -58.4161, -34.6581 ], [ -58.4172, -34.6277 ] ] } },
{ "type": "Feature", "properties": { "nombre": "Camino sin nombre", "longitud_km": 0.3 }, "geometry": { "type": "LineString", "coordinates": [ [ -58.416, -34.6608 ], [ -58.4161, -34.6581 ] ] } },
{ "type": "Feature", "properties": { "nombre": "Camino sin nombre", "longitud_km": 11.87 }, "geometry": { "type": "LineString", "coordinates": [ [ -58.4901, -34.6424 ], [ -58.4429, -34.6228 ], [ -58.3666, -34.6169 ] ] } },
{ "type": "Feature", "properties": { "nombre": "Camino sin nombre", "longitud_km": 3.39 }, "geometry": { "type": "LineString", "coordinates": [ [ -58.4901, -34.6424 ], [ -58.5181, -34.6623 ] ] } }
]
}
