{
"type": "FeatureCollection",
"name": "la-rioja",
"crs": { "type": "name", "properties": { "name": "urn:ogc:def:crs:OGC:1.3:CRS84" } },
"xy_coordinate_resolution": 0.0001,
"features": [
{ "type": "Feature", "properties": { "nombre": "Camino sin nombre", "longitud_km": 9.08 }, "geometry": { "type": "LineString", "coordinates": [ [ -68.6968, -28.2495 ], [ -68.7357, -28.2756 ], [ -68.7618, -28.278 ], [ -68.7787, -28.2739 ] ] } },
{ "type": "Feature", "properties": { "nombre": "Camino sin nombre", "longitud_km": 46.39 }, "geometry": { "type": "LineString", "coordinates": [ [ -68.4018, -28.6145 ], [ -68.4079, -28.5924 ], [ -68.4059, -28.5615 ], [ -68.3962, -28.5368 ], [ -68.3902, -28.4956 ], [ -68.3702, -28.487 ], [ -68.3698, -28.4662 ], [ -68.359, -28.4447 ], [ -68.3641, -28.4082 ], [ -68.3072, -28.3489 ], [ -68.2881, -28.3097 ], [ -68.2784, -28.3194 ], [ -68.2291, -28.3081 ], [ -68.2193, -28.2924 ] ] } },
{ "type": "Feature", "properties": { "nombre": "Camino sin nombre", "longitud_km": 3.2 }, "geometry": { "type": "LineString", "coordinates": [ [ -66.8493, -28.3835 ], [ -66.8548, -28.355 ] ] } },
{ "type": "Feature", "properties": { "nombre": "Camino sin nombre", "longitud_km": 1.9 }, "geometry": { "type": "LineString", "coordinates": [ [ -67.6845, -28.4012 ], [ -67.7015, -28.393 ] ] } },
{ "type": "Feature", "properties": { "nombre": "Camino sin nombre", "longitud_km": 7.16 }, "geometry": { "type": "LineString", "coordinates": [ [ -67.6845, -28.4012 ], [ -67.6823, -28.4658 ] ] } },
{ "type": "Feature", "properties": { "nombre": "Camino sin nombre", "longitud_km": 0.17 }, "geometry": { "type": "LineString", "coordinates": [ [ -66.8396, -28.5605 ], [ -66.84, -28.562 ] ] } },
{ "type": "Feature", "properties": { "nombre": "Camino sin nombre", "longitud_km": 14.38 }, "geometry": { "type": "LineString", "coordinates": [ [ -68.4186, -28.6061 ], [ -68.4687, -28.5451 ], [ -68.4899, -28.5297 ], [ -68.5035, -28.5118 ], [ -68.5125, -28.5084 ] ] } },
{ "type": "Feature", "properties": { "nombre": "Camino sin nombre", "longitud_km": 0.87 }, "geometry": { "type": "LineString", "coordinates": [ [ -66.7786, -28.6151 ], [ -66.7874, -28.6155 ] ] } },
{ "type": "Feature", "properties": { "nombre": "Camino sin nombre", "longitud_km": 5.75 }, "geometry": { "type": "LineString", "coordinates": [ [ -66.7874, -28.6155 ], [ -66.7875, -28.6005 ], [ -66.7954, -28.5796 ], [ -66.8011, -28.571 ], [ -66.8062, -28.573 ] ] } },
{ "type": "Feature", "properties": { "nombre": "Camino sin nombre", "longitud_km": 0.41 }, "geometry": { "type": "LineString", "coordinates": [ [ -66.7874, -28.6155 ], [ -66.7916, -28.6156 ] ] } },
{ "type": "Feature", "properties": { "nombre": "Camino sin nombre", "longitud_km": 7.08 }, "geometry": { "type": "LineString", "coordinates": [ [ -67.5717, -28.5968 ], [ -67.547, -28.573 ], [ -67.5241, -28.5776 ], [ -67.5165, -28.5862 ] ] } },
{ "type": "Feature", "properties": { "nombre": "Camino sin nombre", "longitud_km": 2.92 }, "geometry": { "type": "LineString", "coordinates": [ [ -67.5966, -28.5777 ], [ -67.5868, -28.6025 ] ] } },
{ "type": "Feature", "properties": { "nombre": "Camino sin nombre", "longitud_km": 8.39 }, "geometry": { "type": "LineString", "coordinates": [ [ -66.84, -28.562 ], [ -66.8452, -28.5689 ], [ -66.8583, -28.6353 ] ] } },
{ "type": "Feature", "properties": { "nombre": "Camino sin nombre", "longitud_km": 1.9 }, "geometry": { "type": "LineString", "coordinates": [ [ -68.4018, -28.6145 ], [ -68.4186, -28.6061 ] ] } },
{ "type": "Feature", "properties": { "nombre": "Camino sin nombre", "longitud_km": 3.05 }, "geometry": { "type": "LineString", "coordinates": [ [ -68.3717, -28.613 ], [ -68.3874, -28.6173 ], [ -68.4018, -28.6145 ] ] } },
{ "type": "Feature", "properties": { "nombre": "Camino sin nombre", "longitud_km": 1.25 }, "geometry": { "type": "LineString", "coordinates": [ [ -68.3482, -28.6236 ], [ -68.3502, -28.6348 ] ] } },
{ "type": "Feature", "properties": { "nombre": "Camino sin nombre", "longitud_km": 0.78 }, "geometry": { "type": "LineString", "coordinates": [ [ -68.3431, -28.6438 ], [ -68.3421, -28.6368 ] ] } },
{ "type": "Feature", "properties": { "nombre": "Camino sin nombre", "longitud_km": 0.93 }, "geometry": { "type": "LineString", "coordinates": [ [ -68.3263, -28.6469 ], [ -68.3172, -28.6494 ] ] } },
{ "type": "Feature", "properties": { "nombre": "Camino sin nombre", "longitud_km": 4.82 }, "geometry": { "type": "LineString", "coordinates": [ [ -68.3977, -28.6552 ], [ -68.3944, -28.6495 ], [ -68.4021, -28.6396 ], [ -68.4018, -28.6145 ] ] } },
{ "type": "Feature", "properties": { "nombre": "Camino sin nombre", "longitud_km": 2.59 }, "geometry": { "type": "LineString", "coordinates": [ [ -68.3502, -28.6348 ], [ -68.3523, -28.658 ] ] } },
{ "type": "Feature", "properties": { "nombre": "Camino sin nombre", "longitud_km": 4.88 }, "geometry": { "type": "LineString", "coordinates": [ [ -68.3502, -28.6348 ], [ -68.3792, -28.6478 ], [ -68.3915, -28.6586 ] ] } },
{ "type": "Feature", "properties": { "nombre": "Camino sin nombre", "longitud_km": 6.87 }, "geometry": { "type": "LineString", "coordinates": [ [ -68.4357, -28.6576 ], [ -68.4352, -28.6508 ], [ -68.4438, -28.6382 ], [ -68.4395, -28.6235 ], [ -68.4186, -28.6061 ] ] } },
{ "type": "Feature", "properties": { "nombre": "Camino sin nombre", "longitud_km": 1.99 }, "geometry": { "type": "LineString", "coordinates": [ [ -68.2337, -28.7919 ], [ -68.2148, -28.7987 ] ] } },
{ "type": "Feature", "properties": { "nombre": "Camino sin nombre", "longitud_km": 2.53 }, "geometry": { "type": "LineString", "coordinates": [ [ -67.6084, -28.8512 ], [ -67.5992, -28.8501 ], [ -67.5845, -28.8569 ] ] } },
{ "type": "Feature", "properties": { "nombre": "Camino sin nombre", "longitud_km": 1.69 }, "geometry": { "type": "LineString", "coordinates": [ [ -67.5646, -28.8522 ], [ -67.5806, -28.8579 ] ] } },
{ "type": "Feature", "properties": { "nombre": "Camino sin nombre", "longitud_km": 0.39 }, "geometry": { "type": "LineString", "coordinates": [ [ -67.5845, -28.8569 ], [ -67.5806, -28.8579 ] ] } },
{ "type": "Feature", "properties": { "nombre": "Camino sin nombre", "longitud_km": 3.88 }, "geometry": { "type": "LineString", "coordinates": [ [ -67.641, -28.8326 ], [ -67.6308, -28.8345 ], [ -67.6084, -28.8512 ] ] } },
{ "type": "Feature", "properties": { "nombre": "Camino sin nombre", "longitud_km": 0.92 }, "geometry": { "type": "LineString", "coordinates": [ [ -67.592, -28.862 ], [ -67.5845, -28.8569 ] ] } },
{ "type": "Feature", "properties": { "nombre": "Camino sin nombre", "longitud_km": 2.0 }, "geometry": { "type": "LineString", "coordinates": [ [ -67.6084, -28.8512 ], [ -67.592, -28.862 ] ] } },
{ "type": "Feature", "properties": { "nombre": "Camino sin nombre", "longitud_km": 0.93 }, "geometry": { "type": "LineString", "coordinates": [ [ -67.5696, -28.8641 ], [ -67.5639, -28.8573 ] ] } },
{ "type": "Feature", "properties": { "nombre": "Camino sin nombre", "longitud_km": 1.27 }, "geometry": { "type": "LineString", "coordinates": [ [ -67.5806, -28.8579 ], [ -67.5696, -28.8641 ] ] } },
{ "type": "Feature", "properties": { "nombre": "Camino sin nombre", "longitud_km": 1.16 }, "geometry": { "type": "LineString", "coordinates": [ [ -67.5696, -28.8641 ], [ -67.5621, -28.8722 ] ] } },
{ "type": "Feature", "properties": { "nombre": "Camino sin nombre", "longitud_km": 1.45 }, "geometry": { "type": "LineString", "coordinates": [ [ -67.5621, -28.8722 ], [ -67.5505, -28.8804 ] ] } },
{ "type": "Feature", "properties": { "nombre": "Camino sin nombre", "longitud_km": 0.7 }, "geometry": { "type": "LineString", "coordinates": [ [ -67.5247, -28.9327 ], [ -67.5176, -28.9335 ] ] } },
{ "type": "Feature", "properties": { "nombre": "Camino sin nombre", "longitud_km": 6.99 }, "geometry": { "type": "LineString", "coordinates": [ [ -68.215, -28.7997 ], [ -68.2103, -28.8349 ], [ -68.2012, -28.8613 ] ] } },
{ "type": "Feature", "properties": { "nombre": "Camino sin nombre", "longitud_km": 1.57 }, "geometry": { "type": "LineString", "coordinates": [ [ -67.5621, -28.8722 ], [ -67.56, -28.8785 ], [ -67.5654, -28.8845 ] ] } },
{ "type": "Feature", "properties": { "nombre": "Camino sin nombre", "longitud_km": 3.59 }, "geometry": { "type": "LineString", "coordinates": [ [ -67.592, -28.862 ], [ -67.5654, -28.8845 ] ] } },
{ "type": "Feature", "properties": { "nombre": "Camino sin nombre", "longitud_km": 1.27 }, "geometry": { "type": "LineString", "coordinates": [ [ -67.5654, -28.8845 ], [ -67.5547, -28.891 ] ] } },
{ "type": "Feature", "properties": { "nombre": "Camino sin nombre", "longitud_km": 3.1 }, "geometry": { "type": "LineString", "coordinates": [ [ -67.5547, -28.891 ], [ -67.5442, -28.9087 ], [ -67.5356, -28.9115 ] ] } },
{ "type": "Feature", "properties": { "nombre": "Camino sin nombre", "longitud_km": 0.79 }, "geometry": { "type": "LineString", "coordinates": [ [ -67.5369, -28.9012 ], [ -67.5294, -28.8987 ] ] } },
{ "type": "Feature", "properties": { "nombre": "Camino sin nombre", "longitud_km": 2.6 }, "geometry": { "type": "LineString", "coordinates": [ [ -67.5547, -28.891 ], [ -67.5468, -28.8879 ], [ -67.5369, -28.9012 ] ] } },
{ "type": "Feature", "properties": { "nombre": "Camino sin nombre", "longitud_km": 1.01 }, "geometry": { "type": "LineString", "coordinates": [ [ -67.5369, -28.9012 ], [ -67.5287, -28.9068 ] ] } },
{ "type": "Feature", "properties": { "nombre": "Camino sin nombre", "longitud_km": 0.38 }, "geometry": { "type": "LineString", "coordinates": [ [ -67.5269, -28.907 ], [ -67.5234, -28.9054 ] ] } },
{ "type": "Feature", "properties": { "nombre": "Camino sin nombre", "longitud_km": 0.18 }, "geometry": { "type": "LineString", "coordinates": [ [ -67.5287, -28.9068 ], [ -67.5269, -28.907 ] ] } },
{ "type": "Feature", "properties": { "nombre": "Camino sin nombre", "longitud_km": 1.52 }, "geometry": { "type": "LineString", "coordinates": [ [ -66.1341, -28.9333 ], [ -66.1325, -28.947 ] ] } },
{ "type": "Feature", "properties": { "nombre": "Camino sin nombre", "longitud_km": 0.85 }, "geometry": { "type": "LineString", "coordinates": [ [ -67.5356, -28.9115 ], [ -67.5287, -28.9068 ] ] } },
{ "type": "Feature", "properties": { "nombre": "Camino sin nombre", "longitud_km": 0.34 }, "geometry": { "type": "LineString", "coordinates": [ [ -67.5356, -28.9115 ], [ -67.534, -28.9141 ] ] } },
{ "type": "Feature", "properties": { "nombre": "Camino sin nombre", "longitud_km": 1.3 }, "geometry": { "type": "LineString", "coordinates": [ [ -67.5269, -28.907 ], [ -67.5217, -28.9179 ] ] } },
{ "type": "Feature", "properties": { "nombre": "Camino sin nombre", "longitud_km": 0.2 }, "geometry": { "type": "LineString", "coordinates": [ [ -67.5197, -28.918 ], [ -67.5217, -28.9179 ] ] } },
{ "type": "Feature", "properties": { "nombre": "Camino sin nombre", "longitud_km": 2.27 }, "geometry": { "type": "LineString", "coordinates": [ [ -67.5244, -28.9047 ], [ -67.5143, -28.9083 ], [ -67.5197, -28.918 ] ] } },
{ "type": "Feature", "properties": { "nombre": "Camino sin nombre", "longitud_km": 1.26 }, "geometry": { "type": "LineString", "coordinates": [ [ -67.534, -28.9141 ], [ -67.5217, -28.9179 ] ] } },
{ "type": "Feature", "properties": { "nombre": "Camino sin nombre", "longitud_km": 1.17 }, "geometry": { "type": "LineString", "coordinates": [ [ -67.5317, -28.9221 ], [ -67.5198, -28.9211 ] ] } },
{ "type": "Feature", "properties": { "nombre": "Camino sin nombre", "longitud_km": 0.92 }, "geometry": { "type": "LineString", "coordinates": [ [ -67.534, -28.9141 ], [ -67.5317, -28.9221 ] ] } },
{ "type": "Feature", "properties": { "nombre": "Camino sin nombre", "longitud_km": 0.47 }, "geometry": { "type": "LineString", "coordinates": [ [ -67.5317, -28.9221 ], [ -67.5292, -28.9258 ] ] } },
{ "type": "Feature", "properties": { "nombre": "Camino sin nombre", "longitud_km": 1.01 }, "geometry": { "type": "LineString", "coordinates": [ [ -67.5292, -28.9258 ], [ -67.5189, -28.9263 ] ] } },
{ "type": "Feature", "properties": { "nombre": "Camino sin nombre", "longitud_km": 0.88 }, "geometry": { "type": "LineString", "coordinates": [ [ -67.5292, -28.9258 ], [ -67.5247, -28.9327 ] ] } },
{ "type": "Feature", "properties": { "nombre": "Camino sin nombre", "longitud_km": 5.19 }, "geometry": { "type": "LineString", "coordinates": [ [ -67.5247, -28.9327 ], [ -67.5143, -28.955 ], [ -67.5159, -28.9741 ], [ -67.5119, -28.9739 ] ] } },
{ "type": "Feature", "properties": { "nombre": "Camino sin nombre", "longitud_km": 12.74 }, "geometry": { "type": "LineString", "coordinates": [ [ -68.2009, -28.8725 ], [ -68.2108, -28.8984 ], [ -68.2092, -28.9439 ], [ -68.1974, -28.9724 ], [ -68.2051, -28.982 ] ] } },
{ "type": "Feature", "properties": { "nombre": "Camino sin nombre", "longitud_km": 1.04 }, "geometry": { "type": "LineString", "coordinates": [ [ -68.2155, -28.9799 ], [ -68.2051, -28.982 ] ] } },
{ "type": "Feature", "properties": { "nombre": "Camino sin nombre", "longitud_km": 0.91 }, "geometry": { "type": "LineString", "coordinates": [ [ -68.2155, -28.9799 ], [ -68.2211, -28.9865 ] ] } },
{ "type": "Feature", "properties": { "nombre": "Camino sin nombre", "longitud_km": 2.23 }, "geometry": { "type": "LineString", "coordinates": [ [ -68.2342, -28.9916 ], [ -68.2155, -28.9799 ] ] } },
{ "type": "Feature", "properties": { "nombre": "Camino sin nombre", "longitud_km": 1.4 }, "geometry": { "type": "LineString", "coordinates": [ [ -68.2051, -28.982 ], [ -68.2097, -28.994 ] ] } },
{ "type": "Feature", "properties": { "nombre": "Camino sin nombre", "longitud_km": 1.03 }, "geometry": { "type": "LineString", "coordinates": [ [ -68.2342, -28.9916 ], [ -68.2387, -29.0 ] ] } },
{ "type": "Feature", "properties": { "nombre": "Camino sin nombre", "longitud_km": 1.3 }, "geometry": { "type": "LineString", "coordinates": [ [ -68.2454, -28.9978 ], [ -68.2342, -28.9916 ] ] } },
{ "type": "Feature", "properties": { "nombre": "Camino sin nombre", "longitud_km": 1.15 }, "geometry": { "type": "LineString", "coordinates": [ [ -68.2528, -29.0 ], [ -68.2537, -28.997 ], [ -68.2454, -28.9978 ] ] } },
{ "type": "Feature", "properties": { "nombre": "Camino sin nombre", "longitud_km": 1.16 }, "geometry": { "type": "LineString", "coordinates": [ [ -67.393, -29.1978 ], [ -67.3965, -29.2078 ] ] } },
{ "type": "Feature", "properties": { "nombre": "Camino sin nombre", "longitud_km": 2.47 }, "geometry": { "type": "LineString", "coordinates": [ [ -67.3965, -29.2078 ], [ -67.4194, -29.1982 ] ] } },
{ "type": "Feature", "properties": { "nombre": "Camino sin nombre", "longitud_km": 1.79 }, "geometry": { "type": "LineString", "coordinates": [ [ -67.4211, -29.1386 ], [ -67.4029, -29.1403 ] ] } },
{ "type": "Feature", "properties": { "nombre": "Camino sin nombre", "longitud_km": 4.52 }, "geometry": { "type": "LineString", "coordinates": [ [ -67.4029, -29.1403 ], [ -67.3565, -29.1378 ] ] } },
{ "type": "Feature", "properties": { "nombre": "Camino sin nombre", "longitud_km": 4.43 }, "geometry": { "type": "LineString", "coordinates": [ [ -67.4752, -29.1498 ], [ -67.4299, -29.1461 ] ] } },
{ "type": "Feature", "properties": { "nombre": "Camino sin nombre", "longitud_km": 1.57 }, "geometry": { "type": "LineString", "coordinates": [ [ -67.4029, -29.1403 ], [ -67.4068, -29.1541 ] ] } },
{ "type": "Feature", "properties": { "nombre": "Camino sin nombre", "longitud_km": 1.53 }, "geometry": { "type": "LineString", "coordinates": [ [ -67.4068, -29.1541 ], [ -67.3916, -29.1576 ] ] } },
{ "type": "Feature", "properties": { "nombre": "Camino sin nombre", "longitud_km": 10.34 }, "geometry": { "type": "LineString", "coordinates": [ [ -67.0803, -29.1674 ], [ -67.1105, -29.1603 ], [ -67.1514, -29.1678 ], [ -67.1584, -29.1513 ], [ -67.1554, -29.1401 ] ] } },
{ "type": "Feature", "properties": { "nombre": "Camino sin nombre", "longitud_km": 0.44 }, "geometry": { "type": "LineString", "coordinates": [ [ -67.4537, -29.1561 ], [ -67.4505, -29.159 ] ] } },
{ "type": "Feature", "properties": { "nombre": "Camino sin nombre", "longitud_km": 1.58 }, "geometry": { "type": "LineString", "coordinates": [ [ -67.4299, -29.1461 ], [ -67.4334, -29.1601 ] ] } },
{ "type": "Feature", "properties": { "nombre": "Camino sin nombre", "longitud_km": 0.47 }, "geometry": { "type": "LineString", "coordinates": [ [ -67.4522, -29.163 ], [ -67.4505, -29.159 ] ] } },
{ "type": "Feature", "properties": { "nombre": "Camino sin nombre", "longitud_km": 1.49 }, "geometry": { "type": "LineString", "coordinates": [ [ -67.4812, -29.1492 ], [ -67.481, -29.1627 ] ] } },
{ "type": "Feature", "properties": { "nombre": "Camino sin nombre", "longitud_km": 1.3 }, "geometry": { "type": "LineString", "coordinates": [ [ -67.4068, -29.1541 ], [ -67.41, -29.1654 ] ] } },
{ "type": "Feature", "properties": { "nombre": "Camino sin nombre", "longitud_km": 2.35 }, "geometry": { "type": "LineString", "coordinates": [ [ -67.4334, -29.1601 ], [ -67.41, -29.1654 ] ] } },
{ "type": "Feature", "properties": { "nombre": "Camino sin nombre", "longitud_km": 0.24 }, "geometry": { "type": "LineString", "coordinates": [ [ -67.4538, -29.1646 ], [ -67.4522, -29.163 ] ] } },
{ "type": "Feature", "properties": { "nombre": "Camino sin nombre", "longitud_km": 0.17 }, "geometry": { "type": "LineString", "coordinates": [ [ -67.4547, -29.1633 ], [ -67.4538, -29.1646 ] ] } },
{ "type": "Feature", "properties": { "nombre": "Camino sin nombre", "longitud_km": 0.63 }, "geometry": { "type": "LineString", "coordinates": [ [ -67.4334, -29.1601 ], [ -67.4346, -29.1657 ] ] } },
{ "type": "Feature", "properties": { "nombre": "Camino sin nombre", "longitud_km": 1.72 }, "geometry": { "type": "LineString", "coordinates": [ [ -67.4505, -29.159 ], [ -67.4346, -29.1657 ] ] } },
{ "type": "Feature", "properties": { "nombre": "Camino sin nombre", "longitud_km": 2.65 }, "geometry": { "type": "LineString", "coordinates": [ [ -67.481, -29.1627 ], [ -67.4538, -29.1646 ] ] } },
{ "type": "Feature", "properties": { "nombre": "Camino sin nombre", "longitud_km": 0.26 }, "geometry": { "type": "LineString", "coordinates": [ [ -67.4346, -29.1657 ], [ -67.4346, -29.168 ] ] } },
{ "type": "Feature", "properties": { "nombre": "Camino sin nombre", "longitud_km": 3.07 }, "geometry": { "type": "LineString", "coordinates": [ [ -66.8465, -29.1837 ], [ -66.8153, -29.188 ] ] } },
{ "type": "Feature", "properties": { "nombre": "Camino sin nombre", "longitud_km": 1.51 }, "geometry": { "type": "LineString", "coordinates": [ [ -67.4346, -29.1657 ], [ -67.4309, -29.1716 ], [ -67.4231, -29.1709 ] ] } },
{ "type": "Feature", "properties": { "nombre": "Camino sin nombre", "longitud_km": 0.76 }, "geometry": { "type": "LineString", "coordinates": [ [ -67.4346, -29.168 ], [ -67.4347, -29.1749 ] ] } },
{ "type": "Feature", "properties": { "nombre": "Camino sin nombre", "longitud_km": 0.16 }, "geometry": { "type": "LineString", "coordinates": [ [ -67.4347, -29.1749 ], [ -67.4358, -29.1759 ] ] } },
{ "type": "Feature", "properties": { "nombre": "Camino sin nombre", "longitud_km": 1.74 }, "geometry": { "type": "LineString", "coordinates": [ [ -67.41, -29.1654 ], [ -67.4144, -29.1806 ] ] } },
{ "type": "Feature", "properties": { "nombre": "Camino sin nombre", "longitud_km": 2.07 }, "geometry": { "type": "LineString", "coordinates": [ [ -67.4347, -29.1749 ], [ -67.4144, -29.1806 ] ] } },
{ "type": "Feature", "properties": { "nombre": "Camino sin nombre", "longitud_km": 3.99 }, "geometry": { "type": "LineString", "coordinates": [ [ -67.41, -29.1654 ], [ -67.3866, -29.1707 ], [ -67.3898, -29.1852 ] ] } },
{ "type": "Feature", "properties": { "nombre": "Camino sin nombre", "longitud_km": 2.44 }, "geometry": { "type": "LineString", "coordinates": [ [ -67.4144, -29.1806 ], [ -67.3898, -29.1852 ] ] } },
{ "type": "Feature", "properties": { "nombre": "Camino sin nombre", "longitud_km": 1.32 }, "geometry": { "type": "LineString", "coordinates": [ [ -67.4144, -29.1806 ], [ -67.4177, -29.1922 ] ] } },
{ "type": "Feature", "properties": { "nombre": "Camino sin nombre", "longitud_km": 2.46 }, "geometry": { "type": "LineString", "coordinates": [ [ -67.4358, -29.1759 ], [ -67.4497, -29.1945 ] ] } },
{ "type": "Feature", "properties": { "nombre": "Camino sin nombre", "longitud_km": 1.43 }, "geometry": { "type": "LineString", "coordinates": [ [ -67.3898, -29.1852 ], [ -67.393, -29.1978 ] ] } },
{ "type": "Feature", "properties": { "nombre": "Camino sin nombre", "longitud_km": 2.48 }, "geometry": { "type": "LineString", "coordinates": [ [ -67.4177, -29.1922 ], [ -67.393, -29.1978 ] ] } },
{ "type": "Feature", "properties": { "nombre": "Camino sin nombre", "longitud_km": 0.69 }, "geometry": { "type": "LineString", "coordinates": [ [ -67.4177, -29.1922 ], [ -67.4194, -29.1982 ] ] } },
{ "type": "Feature", "properties": { "nombre": "Camino sin nombre", "longitud_km": 3.66 }, "geometry": { "type": "LineString", "coordinates": [ [ -67.3898, -29.1852 ], [ -67.3674, -29.1895 ], [ -67.3703, -29.2021 ] ] } },
{ "type": "Feature", "properties": { "nombre": "Camino sin nombre", "longitud_km": 2.26 }, "geometry": { "type": "LineString", "coordinates": [ [ -67.393, -29.1978 ], [ -67.3703, -29.2021 ] ] } },
{ "type": "Feature", "properties": { "nombre": "Camino sin nombre", "longitud_km": 2.09 }, "geometry": { "type": "LineString", "coordinates": [ [ -67.4588, -29.2014 ], [ -67.4662, -29.202 ], [ -67.4659, -29.1897 ] ] } },
{ "type": "Feature", "properties": { "nombre": "Camino sin nombre", "longitud_km": 0.83 }, "geometry": { "type": "LineString", "coordinates": [ [ -67.4194, -29.1982 ], [ -67.4215, -29.2055 ] ] } },
{ "type": "Feature", "properties": { "nombre": "Camino sin nombre", "longitud_km": 0.82 }, "geometry": { "type": "LineString", "coordinates": [ [ -67.4452, -29.2015 ], [ -67.4433, -29.2086 ] ] } },
{ "type": "Feature", "properties": { "nombre": "Camino sin nombre", "longitud_km": 1.58 }, "geometry": { "type": "LineString", "coordinates": [ [ -66.1913, -29.2451 ], [ -66.1894, -29.231 ] ] } },
{ "type": "Feature", "properties": { "nombre": "Camino sin nombre", "longitud_km": 4.17 }, "geometry": { "type": "LineString", "coordinates": [ [ -67.3703, -29.2021 ], [ -67.3738, -29.2173 ], [ -67.3965, -29.2078 ] ] } },
{ "type": "Feature", "properties": { "nombre": "Camino sin nombre", "longitud_km": 0.35 }, "geometry": { "type": "LineString", "coordinates": [ [ -67.4433, -29.2086 ], [ -67.4433, -29.2118 ] ] } },
{ "type": "Feature", "properties": { "nombre": "Camino sin nombre", "longitud_km": 0.42 }, "geometry": { "type": "LineString", "coordinates": [ [ -67.4433, -29.2118 ], [ -67.4426, -29.2156 ] ] } },
{ "type": "Feature", "properties": { "nombre": "Camino sin nombre", "longitud_km": 1.11 }, "geometry": { "type": "LineString", "coordinates": [ [ -66.7449, -29.2475 ], [ -66.737, -29.2404 ] ] } },
{ "type": "Feature", "properties": { "nombre": "Camino sin nombre", "longitud_km": 11.43 }, "geometry": { "type": "LineString", "coordinates": [ [ -66.8153, -29.188 ], [ -66.8033, -29.1805 ], [ -66.7903, -29.1945 ], [ -66.7707, -29.2013 ], [ -66.7514, -29.2459 ], [ -66.7449, -29.2475 ] ] } },
{ "type": "Feature", "properties": { "nombre": "Camino sin nombre", "longitud_km": 4.75 }, "geometry": { "type": "LineString", "coordinates": [ [ -67.4215, -29.2055 ], [ -67.3946, -29.219 ], [ -67.4028, -29.2329 ] ] } },
{ "type": "Feature", "properties": { "nombre": "Camino sin nombre", "longitud_km": 3.34 }, "geometry": { "type": "LineString", "coordinates": [ [ -67.4433, -29.2086 ], [ -67.4302, -29.2365 ] ] } },
{ "type": "Feature", "properties": { "nombre": "Camino sin nombre", "longitud_km": 13.68 }, "geometry": { "type": "LineString", "coordinates": [ [ -66.8158, -29.2965 ], [ -66.8184, -29.2731 ], [ -66.8291, -29.2673 ], [ -66.8311, -29.2521 ], [ -66.8196, -29.2215 ], [ -66.8051, -29.2082 ], [ -66.8056, -29.1992 ], [ -66.8153, -29.188 ] ] } },
{ "type": "Feature", "properties": { "nombre": "Camino sin nombre", "longitud_km": 3.21 }, "geometry": { "type": "LineString", "coordinates": [ [ -66.7449, -29.2475 ], [ -66.7417, -29.2616 ], [ -66.7324, -29.2738 ] ] } },
{ "type": "Feature", "properties": { "nombre": "Camino sin nombre", "longitud_km": 0.71 }, "geometry": { "type": "LineString", "coordinates": [ [ -67.4192, -29.2587 ], [ -67.4126, -29.256 ] ] } },
{ "type": "Feature", "properties": { "nombre": "Camino sin nombre", "longitud_km": 2.68 }, "geometry": { "type": "LineString", "coordinates": [ [ -67.4302, -29.2365 ], [ -67.4192, -29.2587 ] ] } },
{ "type": "Feature", "properties": { "nombre": "Camino sin nombre", "longitud_km": 4.93 }, "geometry": { "type": "LineString", "coordinates": [ [ -67.4302, -29.2365 ], [ -67.4413, -29.2415 ], [ -67.4293, -29.2628 ], [ -67.4192, -29.2587 ] ] } },
{ "type": "Feature", "properties": { "nombre": "Camino sin nombre", "longitud_km": 2.12 }, "geometry": { "type": "LineString", "coordinates": [ [ -66.8158, -29.2965 ], [ -66.8342, -29.2862 ] ] } },
{ "type": "Feature", "properties": { "nombre": "Camino sin nombre", "longitud_km": 2.27 }, "geometry": { "type": "LineString", "coordinates": [ [ -67.4899, -29.2971 ], [ -67.4819, -29.2778 ] ] } },
{ "type": "Feature", "properties": { "nombre": "Camino sin nombre", "longitud_km": 1.33 }, "geometry": { "type": "LineString", "coordinates": [ [ -67.4737, -29.2891 ], [ -67.4813, -29.2991 ] ] } },
{ "type": "Feature", "properties": { "nombre": "Camino sin nombre", "longitud_km": 0.61 }, "geometry": { "type": "LineString", "coordinates": [ [ -67.4813, -29.2991 ], [ -67.4846, -29.3038 ] ] } },
{ "type": "Feature", "properties": { "nombre": "Camino sin nombre", "longitud_km": 1.73 }, "geometry": { "type": "LineString", "coordinates": [ [ -67.4929, -29.2964 ], [ -67.4948, -29.3028 ], [ -67.4846, -29.3038 ] ] } },
{ "type": "Feature", "properties": { "nombre": "Camino sin nombre", "longitud_km": 5.41 }, "geometry": { "type": "LineString", "coordinates": [ [ -66.3677, -29.3427 ], [ -66.3453, -29.3373 ], [ -66.3186, -29.3211 ] ] } },
{ "type": "Feature", "properties": { "nombre": "Camino sin nombre", "longitud_km": 1.15 }, "geometry": { "type": "LineString", "coordinates": [ [ -67.4846, -29.3038 ], [ -67.4903, -29.3129 ] ] } },
{ "type": "Feature", "properties": { "nombre": "Camino sin nombre", "longitud_km": 5.24 }, "geometry": { "type": "LineString", "coordinates": [ [ -66.7875, -29.3367 ], [ -66.8158, -29.2965 ] ] } },
{ "type": "Feature", "properties": { "nombre": "Camino sin nombre", "longitud_km": 7.35 }, "geometry": { "type": "LineString", "coordinates": [ [ -66.8023, -29.3522 ], [ -66.8232, -29.3269 ], [ -66.8591, -29.3114 ] ] } },
{ "type": "Feature", "properties": { "nombre": "Camino sin nombre", "longitud_km": 0.15 }, "geometry": { "type": "LineString", "coordinates": [ [ -68.2287, -29.3067 ], [ -68.2302, -29.3067 ] ] } },
{ "type": "Feature", "properties": { "nombre": "Camino sin nombre", "longitud_km": 2.91 }, "geometry": { "type": "LineString", "coordinates": [ [ -68.2587, -29.2988 ], [ -68.2302, -29.3067 ] ] } },
{ "type": "Feature", "properties": { "nombre": "Camino sin nombre", "longitud_km": 4.0 }, "geometry": { "type": "LineString", "coordinates": [ [ -67.6123, -29.3348 ], [ -67.6025, -29.2998 ] ] } },
{ "type": "Feature", "properties": { "nombre": "Camino sin nombre", "longitud_km": 5.64 }, "geometry": { "type": "LineString", "coordinates": [ [ -66.8188, -29.4089 ], [ -66.7784, -29.4047 ], [ -66.7717, -29.3907 ] ] } },
{ "type": "Feature", "properties": { "nombre": "Camino sin nombre", "longitud_km": 3.36 }, "geometry": { "type": "LineString", "coordinates": [ [ -66.8084, -29.396 ], [ -66.7927, -29.369 ] ] } },
{ "type": "Feature", "properties": { "nombre": "Camino sin nombre", "longitud_km": 8.74 }, "geometry": { "type": "LineString", "coordinates": [ [ -66.8774, -29.3274 ], [ -66.8733, -29.3386 ], [ -66.8428, -29.3593 ], [ -66.8413, -29.3704 ], [ -66.8503, -29.3863 ], [ -66.8482, -29.3903 ] ] } },
{ "type": "Feature", "properties": { "nombre": "Camino sin nombre", "longitud_km": 6.73 }, "geometry": { "type": "LineString", "coordinates": [ [ -66.7986, -29.3956 ], [ -66.786, -29.3799 ], [ -66.7643, -29.3656 ], [ -66.7626, -29.3479 ] ] } },
{ "type": "Feature", "properties": { "nombre": "Camino sin nombre", "longitud_km": 5.45 }, "geometry": { "type": "LineString", "coordinates": [ [ -68.2302, -29.3067 ], [ -68.2568, -29.3075 ], [ -68.2564, -29.3333 ] ] } },
{ "type": "Feature", "properties": { "nombre": "Camino sin nombre", "longitud_km": 1.95 }, "geometry": { "type": "LineString", "coordinates": [ [ -66.7031, -29.3891 ], [ -66.7066, -29.4064 ] ] } },
{ "type": "Feature", "properties": { "nombre": "Camino sin nombre", "longitud_km": 7.79 }, "geometry": { "type": "LineString", "coordinates": [ [ -67.5009, -29.3638 ], [ -67.4247, -29.3857 ] ] } },
{ "type": "Feature", "properties": { "nombre": "Camino sin nombre", "longitud_km": 2.42 }, "geometry": { "type": "LineString", "coordinates": [ [ -66.8733, -29.4197 ], [ -66.8635, -29.4111 ], [ -66.8648, -29.4014 ] ] } },
{ "type": "Feature", "properties": { "nombre": "Camino sin nombre", "longitud_km": 5.51 }, "geometry": { "type": "LineString", "coordinates": [ [ -66.3301, -29.4254 ], [ -66.3142, -29.4326 ], [ -66.2857, -29.4557 ] ] } },
{ "type": "Feature", "properties": { "nombre": "Camino sin nombre", "longitud_km": 13.57 }, "geometry": { "type": "LineString", "coordinates": [ [ -66.8229, -29.4164 ], [ -66.7755, -29.4215 ], [ -66.7352, -29.433 ], [ -66.7205, -29.4431 ], [ -66.6902, -29.449 ] ] } },
{ "type": "Feature", "properties": { "nombre": "Camino sin nombre", "longitud_km": 1.78 }, "geometry": { "type": "LineString", "coordinates": [ [ -67.4953, -29.4262 ], [ -67.4902, -29.4258 ], [ -67.4892, -29.4374 ] ] } },
{ "type": "Feature", "properties": { "nombre": "Camino sin nombre", "longitud_km": 2.12 }, "geometry": { "type": "LineString", "coordinates": [ [ -67.4824, -29.4513 ], [ -67.4837, -29.437 ], [ -67.4892, -29.4374 ] ] } },
{ "type": "Feature", "properties": { "nombre": "Camino sin nombre", "longitud_km": 16.77 }, "geometry": { "type": "LineString", "coordinates": [ [ -66.2857, -29.4557 ], [ -66.2514, -29.4972 ], [ -66.2427, -29.518 ], [ -66.2125, -29.5421 ], [ -66.1846, -29.5766 ] ] } },
{ "type": "Feature", "properties": { "nombre": "Camino sin nombre", "longitud_km": 0.54 }, "geometry": { "type": "LineString", "coordinates": [ [ -67.4879, -29.4517 ], [ -67.4824, -29.4513 ] ] } },
{ "type": "Feature", "properties": { "nombre": "Camino sin nombre", "longitud_km": 1.59 }, "geometry": { "type": "LineString", "coordinates": [ [ -67.4892, -29.4374 ], [ -67.4879, -29.4517 ] ] } },
{ "type": "Feature", "properties": { "nombre": "Camino sin nombre", "longitud_km": 0.54 }, "geometry": { "type": "LineString", "coordinates": [ [ -67.4935, -29.4521 ], [ -67.4879, -29.4517 ] ] } },
{ "type": "Feature", "properties": { "nombre": "Camino sin nombre", "longitud_km": 2.39 }, "geometry": { "type": "LineString", "coordinates": [ [ -67.4864, -29.4683 ], [ -67.4808, -29.4679 ], [ -67.4824, -29.4513 ] ] } },
{ "type": "Feature", "properties": { "nombre": "Camino sin nombre", "longitud_km": 1.85 }, "geometry": { "type": "LineString", "coordinates": [ [ -67.4879, -29.4517 ], [ -67.4864, -29.4683 ] ] } },
{ "type": "Feature", "properties": { "nombre": "Camino sin nombre", "longitud_km": 12.95 }, "geometry": { "type": "LineString", "coordinates": [ [ -66.4367, -29.4958 ], [ -66.3301, -29.4254 ] ] } },
{ "type": "Feature", "properties": { "nombre": "Camino sin nombre", "longitud_km": 0.58 }, "geometry": { "type": "LineString", "coordinates": [ [ -67.4923, -29.4687 ], [ -67.4864, -29.4683 ] ] } },
{ "type": "Feature", "properties": { "nombre": "Camino sin nombre", "longitud_km": 12.77 }, "geometry": { "type": "LineString", "coordinates": [ [ -66.8165, -29.4644 ], [ -66.7855, -29.4654 ], [ -66.7382, -29.4916 ], [ -66.7415, -29.5011 ], [ -66.7545, -29.5011 ], [ -66.772, -29.5102 ] ] } },
{ "type": "Feature", "properties": { "nombre": "Camino sin nombre", "longitud_km": 17.57 }, "geometry": { "type": "LineString", "coordinates": [ [ -66.5552, -29.4157 ], [ -66.5479, -29.4343 ], [ -66.528, -29.4412 ], [ -66.5174, -29.4541 ], [ -66.4967, -29.5211 ], [ -66.4788, -29.5264 ], [ -66.4725, -29.5438 ] ] } },
{ "type": "Feature", "properties": { "nombre": "Camino sin nombre", "longitud_km": 1.72 }, "geometry": { "type": "LineString", "coordinates": [ [ -66.6953, -29.5921 ], [ -66.7131, -29.5932 ] ] } },
{ "type": "Feature", "properties": { "nombre": "Camino sin nombre", "longitud_km": 5.2 }, "geometry": { "type": "LineString", "coordinates": [ [ -66.4466, -29.4954 ], [ -66.4426, -29.5422 ] ] } },
{ "type": "Feature", "properties": { "nombre": "Camino sin nombre", "longitud_km": 2.9 }, "geometry": { "type": "LineString", "coordinates": [ [ -66.4725, -29.5438 ], [ -66.4426, -29.5422 ] ] } },
{ "type": "Feature", "properties": { "nombre": "Camino sin nombre", "longitud_km": 5.5 }, "geometry": { "type": "LineString", "coordinates": [ [ -66.4426, -29.5422 ], [ -66.4391, -29.5669 ], [ -66.421, -29.5859 ] ] } },
{ "type": "Feature", "properties": { "nombre": "Camino sin nombre", "longitud_km": 20.45 }, "geometry": { "type": "LineString", "coordinates": [ [ -65.65, -29.7364 ], [ -65.6508, -29.6863 ], [ -65.5424, -29.6127 ], [ -65.5362, -29.6126 ], [ -65.5317, -29.6044 ] ] } },
{ "type": "Feature", "properties": { "nombre": "Camino sin nombre", "longitud_km": 26.23 }, "geometry": { "type": "LineString", "coordinates": [ [ -66.4725, -29.5438 ], [ -66.4893, -29.5514 ], [ -66.5086, -29.6017 ], [ -66.5472, -29.5998 ], [ -66.5733, -29.5871 ], [ -66.5932, -29.585 ], [ -66.6953, -29.5921 ] ] } },
{ "type": "Feature", "properties": { "nombre": "Camino sin nombre", "longitud_km": 11.52 }, "geometry": { "type": "LineString", "coordinates": [ [ -66.6514, -29.5172 ], [ -66.6396, -29.551 ], [ -66.6399, -29.5629 ], [ -66.6953, -29.5921 ] ] } },
{ "type": "Feature", "properties": { "nombre": "Camino sin nombre", "longitud_km": 3.83 }, "geometry": { "type": "LineString", "coordinates": [ [ -66.1846, -29.5766 ], [ -66.186, -29.6111 ] ] } },
{ "type": "Feature", "properties": { "nombre": "Camino sin nombre", "longitud_km": 3.29 }, "geometry": { "type": "LineString", "coordinates": [ [ -66.0, -29.6626 ], [ -66.0247, -29.6829 ] ] } },
{ "type": "Feature", "properties": { "nombre": "Camino sin nombre", "longitud_km": 5.73 }, "geometry": { "type": "LineString", "coordinates": [ [ -65.65, -29.7364 ], [ -65.6224, -29.7331 ], [ -65.5913, -29.7368 ] ] } },
{ "type": "Feature", "properties": { "nombre": "Camino sin nombre", "longitud_km": 8.66 }, "geometry": { "type": "LineString", "coordinates": [ [ -65.7184, -29.7755 ], [ -65.7183, -29.7676 ], [ -65.7091, -29.757 ], [ -65.6899, -29.7437 ], [ -65.65, -29.7364 ] ] } },
{ "type": "Feature", "properties": { "nombre": "Camino sin nombre", "longitud_km": 4.29 }, "geometry": { "type": "LineString", "coordinates": [ [ -65.6493, -29.7751 ], [ -65.65, -29.7364 ] ] } },
{ "type": "Feature", "properties": { "nombre": "Camino sin nombre", "longitud_km": 6.68 }, "geometry": { "type": "LineString", "coordinates": [ [ -65.7184, -29.7755 ], [ -65.6493, -29.7751 ] ] } },
{ "type": "Feature", "properties": { "nombre": "Camino sin nombre", "longitud_km": 0.63 }, "geometry": { "type": "LineString", "coordinates": [ [ -65.7248, -29.7755 ], [ -65.7184, -29.7755 ] ] } },
{ "type": "Feature", "properties": { "nombre": "Camino sin nombre", "longitud_km": 6.05 }, "geometry": { "type": "LineString", "coordinates": [ [ -65.7837, -29.7592 ], [ -65.7371, -29.7757 ], [ -65.7248, -29.7755 ] ] } },
{ "type": "Feature", "properties": { "nombre": "Camino sin nombre", "longitud_km": 8.74 }, "geometry": { "type": "LineString", "coordinates": [ [ -65.7097, -29.8507 ], [ -65.7088, -29.8333 ], [ -65.7117, -29.822 ], [ -65.7212, -29.8131 ], [ -65.7248, -29.7755 ] ] } },
{ "type": "Feature", "properties": { "nombre": "Camino sin nombre", "longitud_km": 8.23 }, "geometry": { "type": "LineString", "coordinates": [ [ -65.6487, -29.8494 ], [ -65.6493, -29.7751 ] ] } },
{ "type": "Feature", "properties": { "nombre": "Camino sin nombre", "longitud_km": 0.87 }, "geometry": { "type": "LineString", "coordinates": [ [ -65.6487, -29.8494 ], [ -65.6397, -29.849 ] ] } },
{ "type": "Feature", "properties": { "nombre": "Camino sin nombre", "longitud_km": 5.89 }, "geometry": { "type": "LineString", "coordinates": [ [ -65.7097, -29.8507 ], [ -65.6487, -29.8494 ] ] } },
{ "type": "Feature", "properties": { "nombre": "Camino sin nombre", "longitud_km": 4.76 }, "geometry": { "type": "LineString", "coordinates": [ [ -65.7589, -29.8514 ], [ -65.7097, -29.8507 ] ] } },
{ "type": "Feature", "properties": { "nombre": "Camino sin nombre", "longitud_km": 1.28 }, "geometry": { "type": "LineString", "coordinates": [ [ -65.7109, -29.8623 ], [ -65.7097, -29.8507 ] ] } },
{ "type": "Feature", "properties": { "nombre": "Camino sin nombre", "longitud_km": 25.47 }, "geometry": { "type": "LineString", "coordinates": [ [ -66.8944, -30.0 ], [ -66.8807, -29.7706 ] ] } },
{ "type": "Feature", "properties": { "nombre": "Camino sin nombre", "longitud_km": 4.1 }, "geometry": { "type": "LineString", "coordinates": [ [ -65.7062, -29.8958 ], [ -65.7139, -29.8907 ], [ -65.7109, -29.8623 ] ] } },
{ "type": "Feature", "properties": { "nombre": "Camino sin nombre", "longitud_km": 2.53 }, "geometry": { "type": "LineString", "coordinates": [ [ -66.4582, -30.0076 ], [ -66.4844, -30.0074 ] ] } },
{ "type": "Feature", "properties": { "nombre": "Camino sin nombre", "longitud_km": 4.07 }, "geometry": { "type": "LineString", "coordinates": [ [ -66.4571, -30.0092 ], [ -66.4881, -30.0341 ] ] } },
{ "type": "Feature", "properties": { "nombre": "Camino sin nombre", "longitud_km": 18.88 }, "geometry": { "type": "LineString", "coordinates": [ [ -67.4488, -30.2017 ], [ -67.4481, -30.1881 ], [ -67.46, -30.1362 ], [ -67.4823, -30.0811 ], [ -67.4684, -30.0523 ], [ -67.4551, -30.0442 ] ] } },
{ "type": "Feature", "properties": { "nombre": "Camino sin nombre", "longitud_km": 24.13 }, "geometry": { "type": "LineString", "coordinates": [ [ -66.0608, -30.0442 ], [ -66.0084, -30.1188 ], [ -65.8769, -30.119 ], [ -65.8626, -30.1288 ] ] } },
{ "type": "Feature", "properties": { "nombre": "Camino sin nombre", "longitud_km": 0.46 }, "geometry": { "type": "LineString", "coordinates": [ [ -67.0552, -30.2697 ], [ -67.0591, -30.2722 ] ] } },
{ "type": "Feature", "properties": { "nombre": "Camino sin nombre", "longitud_km": 2.69 }, "geometry": { "type": "LineString", "coordinates": [ [ -67.0591, -30.2722 ], [ -67.067, -30.2645 ], [ -67.0828, -30.2671 ] ] } },
{ "type": "Feature", "properties": { "nombre": "Camino sin nombre", "longitud_km": 0.44 }, "geometry": { "type": "LineString", "coordinates": [ [ -67.0591, -30.2722 ], [ -67.0628, -30.2745 ] ] } },
{ "type": "Feature", "properties": { "nombre": "Camino sin nombre", "longitud_km": 9.02 }, "geometry": { "type": "LineString", "coordinates": [ [ -66.3165, -30.2712 ], [ -66.3432, -30.2757 ], [ -66.339, -30.2848 ], [ -66.3481, -30.2967 ], [ -66.3427, -30.3158 ], [ -66.3458, -30.3294 ] ] } },
{ "type": "Feature", "properties": { "nombre": "Camino sin nombre", "longitud_km": 1.41 }, "geometry": { "type": "LineString", "coordinates": [ [ -66.2925, -30.3342 ], [ -66.3071, -30.3344 ] ] } },
{ "type": "Feature", "properties": { "nombre": "Camino sin nombre", "longitud_km": 0.63 }, "geometry": { "type": "LineString", "coordinates": [ [ -66.3069, -30.3394 ], [ -66.303, -30.344 ] ] } },
{ "type": "Feature", "properties": { "nombre": "Camino sin nombre", "longitud_km": 0.37 }, "geometry": { "type": "LineString", "coordinates": [ [ -66.3067, -30.3432 ], [ -66.303, -30.344 ] ] } },
{ "type": "Feature", "properties": { "nombre": "Camino sin nombre", "longitud_km": 0.02 }, "geometry": { "type": "LineString", "coordinates": [ [ -66.303, -30.344 ], [ -66.3029, -30.3441 ] ] } },
{ "type": "Feature", "properties": { "nombre": "Camino sin nombre", "longitud_km": 0.13 }, "geometry": { "type": "LineString", "coordinates": [ [ -66.2957, -30.3447 ], [ -66.2944, -30.3445 ] ] } },
{ "type": "Feature", "properties": { "nombre": "Camino sin nombre", "longitud_km": 0.69 }, "geometry": { "type": "LineString", "coordinates": [ [ -66.3029, -30.3441 ], [ -66.2957, -30.3447 ] ] } },
{ "type": "Feature", "properties": { "nombre": "Camino sin nombre", "longitud_km": 0.14 }, "geometry": { "type": "LineString", "coordinates": [ [ -66.2961, -30.3459 ], [ -66.2957, -30.3447 ] ] } },
{ "type": "Feature", "properties": { "nombre": "Camino sin nombre", "longitud_km": 0.68 }, "geometry": { "type": "LineString", "coordinates": [ [ -66.3029, -30.3441 ], [ -66.2961, -30.3459 ] ] } },
{ "type": "Feature", "properties": { "nombre": "Camino sin nombre", "longitud_km": 13.0 }, "geometry": { "type": "LineString", "coordinates": [ [ -66.0965, -30.421 ], [ -66.0908, -30.4151 ], [ -66.0883, -30.395 ], [ -66.102, -30.3574 ], [ -66.096, -30.3555 ], [ -66.0995, -30.3529 ], [ -66.0879, -30.3138 ] ] } },
{ "type": "Feature", "properties": { "nombre": "Camino sin nombre", "longitud_km": 1.29 }, "geometry": { "type": "LineString", "coordinates": [ [ -66.3062, -30.3536 ], [ -66.2961, -30.3459 ] ] } },
{ "type": "Feature", "properties": { "nombre": "Camino sin nombre", "longitud_km": 0.66 }, "geometry": { "type": "LineString", "coordinates": [ [ -66.3183, -30.3637 ], [ -66.3132, -30.3598 ] ] } },
{ "type": "Feature", "properties": { "nombre": "Camino sin nombre", "longitud_km": 7.94 }, "geometry": { "type": "LineString", "coordinates": [ [ -66.3766, -30.4137 ], [ -66.3414, -30.3778 ], [ -66.3183, -30.3637 ] ] } },
{ "type": "Feature", "properties": { "nombre": "Camino sin nombre", "longitud_km": 11.76 }, "geometry": { "type": "LineString", "coordinates": [ [ -66.3122, -30.3724 ], [ -66.2911, -30.3902 ], [ -66.2787, -30.4213 ], [ -66.2761, -30.4689 ] ] } },
{ "type": "Feature", "properties": { "nombre": "Camino sin nombre", "longitud_km": 17.36 }, "geometry": { "type": "LineString", "coordinates": [ [ -66.3183, -30.3637 ], [ -66.3282, -30.3982 ], [ -66.3477, -30.4165 ], [ -66.3383, -30.4316 ], [ -66.3399, -30.4746 ], [ -66.3003, -30.4638 ] ] } },
{ "type": "Feature", "properties": { "nombre": "Camino sin nombre", "longitud_km": 1.93 }, "geometry": { "type": "LineString", "coordinates": [ [ -66.0965, -30.421 ], [ -66.0784, -30.4134 ] ] } },
{ "type": "Feature", "properties": { "nombre": "Camino sin nombre", "longitud_km": 5.37 }, "geometry": { "type": "LineString", "coordinates": [ [ -66.1246, -30.4629 ], [ -66.0965, -30.421 ] ] } },
{ "type": "Feature", "properties": { "nombre": "Camino sin nombre", "longitud_km": 0.78 }, "geometry": { "type": "LineString", "coordinates": [ [ -66.2662, -30.5042 ], [ -66.2585, -30.5064 ] ] } },
{ "type": "Feature", "properties": { "nombre": "Camino sin nombre", "longitud_km": 2.39 }, "geometry": { "type": "LineString", "coordinates": [ [ -66.3003, -30.4638 ], [ -66.2761, -30.4689 ] ] } },
{ "type": "Feature", "properties": { "nombre": "Camino sin nombre", "longitud_km": 6.31 }, "geometry": { "type": "LineString", "coordinates": [ [ -66.1805, -30.4917 ], [ -66.1637, -30.4874 ], [ -66.1246, -30.4629 ] ] } },
{ "type": "Feature", "properties": { "nombre": "Camino sin nombre", "longitud_km": 1.4 }, "geometry": { "type": "LineString", "coordinates": [ [ -66.2257, -30.5478 ], [ -66.2402, -30.5468 ] ] } },
{ "type": "Feature", "properties": { "nombre": "Camino sin nombre", "longitud_km": 2.36 }, "geometry": { "type": "LineString", "coordinates": [ [ -66.1979, -30.5056 ], [ -66.1855, -30.4995 ], [ -66.1805, -30.4917 ] ] } },
{ "type": "Feature", "properties": { "nombre": "Camino sin nombre", "longitud_km": 4.14 }, "geometry": { "type": "LineString", "coordinates": [ [ -66.1805, -30.4917 ], [ -66.2012, -30.4902 ], [ -66.204, -30.4943 ], [ -66.196, -30.5005 ], [ -66.1979, -30.5056 ] ] } },
{ "type": "Feature", "properties": { "nombre": "Camino sin nombre", "longitud_km": 4.19 }, "geometry": { "type": "LineString", "coordinates": [ [ -66.2761, -30.4689 ], [ -66.2782, -30.4825 ], [ -66.2662, -30.5042 ] ] } },
{ "type": "Feature", "properties": { "nombre": "Camino sin nombre", "longitud_km": 2.53 }, "geometry": { "type": "LineString", "coordinates": [ [ -66.2913, -30.4974 ], [ -66.2662, -30.5042 ] ] } },
{ "type": "Feature", "properties": { "nombre": "Camino sin nombre", "longitud_km": 2.63 }, "geometry": { "type": "LineString", "coordinates": [ [ -66.2253, -30.5044 ], [ -66.1979, -30.5056 ] ] } },
{ "type": "Feature", "properties": { "nombre": "Camino sin nombre", "longitud_km": 3.19 }, "geometry": { "type": "LineString", "coordinates": [ [ -66.2585, -30.5064 ], [ -66.2253, -30.5044 ] ] } },
{ "type": "Feature", "properties": { "nombre": "Camino sin nombre", "longitud_km": 7.98 }, "geometry": { "type": "LineString", "coordinates": [ [ -66.0334, -30.5131 ], [ -66.0125, -30.507 ], [ -66.0076, -30.4695 ], [ -66.0, -30.4832 ] ] } },
{ "type": "Feature", "properties": { "nombre": "Camino sin nombre", "longitud_km": 3.51 }, "geometry": { "type": "LineString", "coordinates": [ [ -66.1979, -30.5056 ], [ -66.2011, -30.5127 ], [ -66.2152, -30.5123 ], [ -66.2253, -30.5044 ] ] } },
{ "type": "Feature", "properties": { "nombre": "Camino sin nombre", "longitud_km": 5.25 }, "geometry": { "type": "LineString", "coordinates": [ [ -66.3229, -30.4943 ], [ -66.3212, -30.5109 ], [ -66.3015, -30.497 ], [ -66.2913, -30.4974 ] ] } },
{ "type": "Feature", "properties": { "nombre": "Camino sin nombre", "longitud_km": 8.53 }, "geometry": { "type": "LineString", "coordinates": [ [ -66.6057, -30.4755 ], [ -66.5568, -30.4984 ], [ -66.5247, -30.5056 ] ] } },
{ "type": "Feature", "properties": { "nombre": "Camino sin nombre", "longitud_km": 12.54 }, "geometry": { "type": "LineString", "coordinates": [ [ -66.1083, -30.5425 ], [ -66.1268, -30.5438 ], [ -66.1558, -30.5287 ], [ -66.1864, -30.5279 ], [ -66.1926, -30.5353 ], [ -66.2184, -30.5416 ], [ -66.2257, -30.5478 ] ] } },
{ "type": "Feature", "properties": { "nombre": "Camino sin nombre", "longitud_km": 1.06 }, "geometry": { "type": "LineString", "coordinates": [ [ -66.0068, -30.5429 ], [ -66.008, -30.5334 ] ] } },
{ "type": "Feature", "properties": { "nombre": "Camino sin nombre", "longitud_km": 1.27 }, "geometry": { "type": "LineString", "coordinates": [ [ -66.0663, -30.5312 ], [ -66.0722, -30.5415 ] ] } },
{ "type": "Feature", "properties": { "nombre": "Camino sin nombre", "longitud_km": 1.31 }, "geometry": { "type": "LineString", "coordinates": [ [ -66.0351, -30.5305 ], [ -66.0361, -30.5424 ] ] } },
{ "type": "Feature", "properties": { "nombre": "Camino sin nombre", "longitud_km": 6.77 }, "geometry": { "type": "LineString", "coordinates": [ [ -65.8697, -30.5296 ], [ -65.8955, -30.5251 ], [ -65.9329, -30.5456 ] ] } },
{ "type": "Feature", "properties": { "nombre": "Camino sin nombre", "longitud_km": 4.76 }, "geometry": { "type": "LineString", "coordinates": [ [ -66.2585, -30.5064 ], [ -66.2388, -30.5232 ], [ -66.2408, -30.5422 ] ] } },
{ "type": "Feature", "properties": { "nombre": "Camino sin nombre", "longitud_km": 0.76 }, "geometry": { "type": "LineString", "coordinates": [ [ -65.9627, -30.55 ], [ -65.9592, -30.5438 ] ] } },
{ "type": "Feature", "properties": { "nombre": "Camino sin nombre", "longitud_km": 1.77 }, "geometry": { "type": "LineString", "coordinates": [ [ -65.9805, -30.5457 ], [ -65.9627, -30.55 ] ] } },
{ "type": "Feature", "properties": { "nombre": "Camino sin nombre", "longitud_km": 0.52 }, "geometry": { "type": "LineString", "coordinates": [ [ -66.2408, -30.5422 ], [ -66.2402, -30.5468 ] ] } },
{ "type": "Feature", "properties": { "nombre": "Camino sin nombre", "longitud_km": 3.54 }, "geometry": { "type": "LineString", "coordinates": [ [ -66.2768, -30.5488 ], [ -66.2408, -30.5422 ] ] } },
{ "type": "Feature", "properties": { "nombre": "Camino sin nombre", "longitud_km": 4.81 }, "geometry": { "type": "LineString", "coordinates": [ [ -65.9796, -30.5908 ], [ -65.9627, -30.55 ] ] } },
{ "type": "Feature", "properties": { "nombre": "Camino sin nombre", "longitud_km": 2.0 }, "geometry": { "type": "LineString", "coordinates": [ [ -66.2402, -30.5468 ], [ -66.2446, -30.5645 ] ] } },
{ "type": "Feature", "properties": { "nombre": "Camino sin nombre", "longitud_km": 9.82 }, "geometry": { "type": "LineString", "coordinates": [ [ -66.2257, -30.5478 ], [ -66.2192, -30.5609 ], [ -66.1926, -30.5735 ], [ -66.166, -30.5621 ], [ -66.1605, -30.5839 ] ] } },
{ "type": "Feature", "properties": { "nombre": "Camino sin nombre", "longitud_km": 5.4 }, "geometry": { "type": "LineString", "coordinates": [ [ -66.5313, -30.5752 ], [ -66.523, -30.5556 ], [ -66.5275, -30.539 ], [ -66.5362, -30.5312 ] ] } },
{ "type": "Feature", "properties": { "nombre": "Camino sin nombre", "longitud_km": 1.65 }, "geometry": { "type": "LineString", "coordinates": [ [ -66.5426, -30.564 ], [ -66.5313, -30.5752 ] ] } },
{ "type": "Feature", "properties": { "nombre": "Camino sin nombre", "longitud_km": 10.73 }, "geometry": { "type": "LineString", "coordinates": [ [ -65.9627, -30.55 ], [ -65.9426, -30.5526 ], [ -65.9366, -30.5703 ], [ -65.9378, -30.5819 ], [ -65.9553, -30.6012 ], [ -65.9696, -30.5912 ], [ -65.9796, -30.5908 ] ] } },
{ "type": "Feature", "properties": { "nombre": "Camino sin nombre", "longitud_km": 10.51 }, "geometry": { "type": "LineString", "coordinates": [ [ -66.0556, -30.6563 ], [ -66.0256, -30.6407 ], [ -66.0, -30.6204 ], [ -65.9796, -30.5908 ] ] } },
{ "type": "Feature", "properties": { "nombre": "Camino sin nombre", "longitud_km": 5.2 }, "geometry": { "type": "LineString", "coordinates": [ [ -66.2207, -30.6009 ], [ -66.2179, -30.5888 ], [ -66.2223, -30.5792 ], [ -66.2446, -30.5645 ] ] } },
{ "type": "Feature", "properties": { "nombre": "Camino sin nombre", "longitud_km": 22.58 }, "geometry": { "type": "LineString", "coordinates": [ [ -66.2693, -30.6371 ], [ -66.2843, -30.6498 ], [ -66.3044, -30.6348 ], [ -66.3092, -30.6364 ], [ -66.3098, -30.6318 ], [ -66.3446, -30.6259 ], [ -66.3586, -30.6046 ], [ -66.4018, -30.5965 ], [ -66.4012, -30.6121 ], [ -66.4402, -30.6296 ], [ -66.4412, -30.636 ] ] } },
{ "type": "Feature", "properties": { "nombre": "Camino sin nombre", "longitud_km": 8.15 }, "geometry": { "type": "LineString", "coordinates": [ [ -66.2446, -30.5645 ], [ -66.2478, -30.6002 ], [ -66.2569, -30.6111 ], [ -66.2576, -30.6213 ], [ -66.2709, -30.6293 ] ] } },
{ "type": "Feature", "properties": { "nombre": "Camino sin nombre", "longitud_km": 10.99 }, "geometry": { "type": "LineString", "coordinates": [ [ -66.5313, -30.5752 ], [ -66.4803, -30.6146 ], [ -66.4412, -30.636 ] ] } },
{ "type": "Feature", "properties": { "nombre": "Camino sin nombre", "longitud_km": 18.99 }, "geometry": { "type": "LineString", "coordinates": [ [ -66.0556, -30.6563 ], [ -66.0668, -30.666 ], [ -66.0994, -30.6537 ], [ -66.1368, -30.6483 ], [ -66.1886, -30.6481 ], [ -66.2152, -30.6413 ], [ -66.2444, -30.6415 ] ] } },
{ "type": "Feature", "properties": { "nombre": "Camino sin nombre", "longitud_km": 4.58 }, "geometry": { "type": "LineString", "coordinates": [ [ -66.5562, -30.6235 ], [ -66.5275, -30.6356 ], [ -66.5206, -30.648 ] ] } },
{ "type": "Feature", "properties": { "nombre": "Camino sin nombre", "longitud_km": 0.44 }, "geometry": { "type": "LineString", "coordinates": [ [ -66.0556, -30.6603 ], [ -66.0556, -30.6563 ] ] } },
{ "type": "Feature", "properties": { "nombre": "Camino sin nombre", "longitud_km": 0.58 }, "geometry": { "type": "LineString", "coordinates": [ [ -66.6752, -30.6447 ], [ -66.6698, -30.6423 ] ] } },
{ "type": "Feature", "properties": { "nombre": "Camino sin nombre", "longitud_km": 0.25 }, "geometry": { "type": "LineString", "coordinates": [ [ -66.057, -30.6622 ], [ -66.0556, -30.6603 ] ] } },
{ "type": "Feature", "properties": { "nombre": "Camino sin nombre", "longitud_km": 3.23 }, "geometry": { "type": "LineString", "coordinates": [ [ -66.0556, -30.6603 ], [ -66.0428, -30.665 ], [ -66.033, -30.6502 ] ] } },
{ "type": "Feature", "properties": { "nombre": "Camino sin nombre", "longitud_km": 3.62 }, "geometry": { "type": "LineString", "coordinates": [ [ -66.1956, -30.686 ], [ -66.161, -30.6727 ] ] } },
{ "type": "Feature", "properties": { "nombre": "Camino sin nombre", "longitud_km": 2.25 }, "geometry": { "type": "LineString", "coordinates": [ [ -66.1964, -30.7122 ], [ -66.1732, -30.7088 ] ] } },
{ "type": "Feature", "properties": { "nombre": "Camino sin nombre", "longitud_km": 17.02 }, "geometry": { "type": "LineString", "coordinates": [ [ -66.4412, -30.636 ], [ -66.4285, -30.6436 ], [ -66.4022, -30.6842 ], [ -66.4072, -30.7014 ], [ -66.4058, -30.7186 ], [ -66.4114, -30.73 ], [ -66.4329, -30.7541 ], [ -66.4488, -30.762 ] ] } },
{ "type": "Feature", "properties": { "nombre": "Camino sin nombre", "longitud_km": 2.37 }, "geometry": { "type": "LineString", "coordinates": [ [ -66.9458, -30.711 ], [ -66.9705, -30.7097 ] ] } },
{ "type": "Feature", "properties": { "nombre": "Camino sin nombre", "longitud_km": 17.5 }, "geometry": { "type": "LineString", "coordinates": [ [ -66.9566, -30.77 ], [ -66.9354, -30.7641 ], [ -66.9098, -30.7664 ], [ -66.8705, -30.7775 ], [ -66.8624, -30.7889 ], [ -66.8554, -30.791 ], [ -66.8283, -30.784 ], [ -66.8286, -30.7774 ], [ -66.8171, -30.7715 ], [ -66.7959, -30.7704 ] ] } },
{ "type": "Feature", "properties": { "nombre": "Camino sin nombre", "longitud_km": 4.15 }, "geometry": { "type": "LineString", "coordinates": [ [ -67.0, -30.7698 ], [ -66.9566, -30.77 ] ] } },
{ "type": "Feature", "properties": { "nombre": "Camino sin nombre", "longitud_km": 8.72 }, "geometry": { "type": "LineString", "coordinates": [ [ -66.0826, -30.8062 ], [ -66.0589, -30.7948 ], [ -65.9951, -30.7985 ] ] } },
{ "type": "Feature", "properties": { "nombre": "Camino sin nombre", "longitud_km": 12.54 }, "geometry": { "type": "LineString", "coordinates": [ [ -66.2112, -30.808 ], [ -66.1506, -30.7966 ], [ -66.0826, -30.8062 ] ] } },
{ "type": "Feature", "properties": { "nombre": "Camino sin nombre", "longitud_km": 3.42 }, "geometry": { "type": "LineString", "coordinates": [ [ -66.9566, -30.77 ], [ -66.9618, -30.8006 ] ] } },
{ "type": "Feature", "properties": { "nombre": "Camino sin nombre", "longitud_km": 10.09 }, "geometry": { "type": "LineString", "coordinates": [ [ -66.6673, -30.7567 ], [ -66.682, -30.753 ], [ -66.7272, -30.7803 ], [ -66.736, -30.7955 ], [ -66.7479, -30.8036 ] ] } },
{ "type": "Feature", "properties": { "nombre": "Camino sin nombre", "longitud_km": 0.8 }, "geometry": { "type": "LineString", "coordinates": [ [ -66.9694, -30.8036 ], [ -66.9618, -30.8006 ] ] } },
{ "type": "Feature", "properties": { "nombre": "Camino sin nombre", "longitud_km": 1.14 }, "geometry": { "type": "LineString", "coordinates": [ [ -66.6457, -30.8238 ], [ -66.6423, -30.8336 ] ] } },
{ "type": "Feature", "properties": { "nombre": "Camino sin nombre", "longitud_km": 0.79 }, "geometry": { "type": "LineString", "coordinates": [ [ -66.6912, -30.8343 ], [ -66.6879, -30.8408 ] ] } },
{ "type": "Feature", "properties": { "nombre": "Camino sin nombre", "longitud_km": 1.31 }, "geometry": { "type": "LineString", "coordinates": [ [ -66.7011, -30.8376 ], [ -66.6879, -30.8408 ] ] } },
{ "type": "Feature", "properties": { "nombre": "Camino sin nombre", "longitud_km": 3.55 }, "geometry": { "type": "LineString", "coordinates": [ [ -66.0503, -30.8604 ], [ -66.0408, -30.8295 ] ] } },
{ "type": "Feature", "properties": { "nombre": "Camino sin nombre", "longitud_km": 6.79 }, "geometry": { "type": "LineString", "coordinates": [ [ -66.0503, -30.8604 ], [ -66.065, -30.8424 ], [ -66.0826, -30.8062 ] ] } },
{ "type": "Feature", "properties": { "nombre": "Camino sin nombre", "longitud_km": 5.95 }, "geometry": { "type": "LineString", "coordinates": [ [ -66.4729, -30.8567 ], [ -66.4605, -30.8439 ], [ -66.4345, -30.8372 ], [ -66.4241, -30.8474 ] ] } },
{ "type": "Feature", "properties": { "nombre": "Camino sin nombre", "longitud_km": 16.0 }, "geometry": { "type": "LineString", "coordinates": [ [ -66.0178, -30.943 ], [ -66.0063, -30.8761 ], [ -66.0, -30.8673 ], [ -65.9842, -30.8727 ], [ -65.941, -30.8688 ], [ -65.9254, -30.8737 ] ] } },
{ "type": "Feature", "properties": { "nombre": "Camino sin nombre", "longitud_km": 11.13 }, "geometry": { "type": "LineString", "coordinates": [ [ -66.1183, -30.9302 ], [ -66.1344, -30.9211 ], [ -66.134, -30.9163 ], [ -66.1617, -30.8884 ], [ -66.1813, -30.8826 ], [ -66.2095, -30.8847 ] ] } },
{ "type": "Feature", "properties": { "nombre": "Camino sin nombre", "longitud_km": 0.26 }, "geometry": { "type": "LineString", "coordinates": [ [ -66.2117, -30.8833 ], [ -66.2095, -30.8847 ] ] } },
{ "type": "Feature", "properties": { "nombre": "Camino sin nombre", "longitud_km": 8.28 }, "geometry": { "type": "LineString", "coordinates": [ [ -66.5142, -30.8431 ], [ -66.5155, -30.8669 ], [ -66.5107, -30.8787 ], [ -66.4667, -30.8845 ] ] } },
{ "type": "Feature", "properties": { "nombre": "Camino sin nombre", "longitud_km": 1.76 }, "geometry": { "type": "LineString", "coordinates": [ [ -66.2095, -30.8847 ], [ -66.2034, -30.8996 ] ] } },
{ "type": "Feature", "properties": { "nombre": "Camino sin nombre", "longitud_km": 5.1 }, "geometry": { "type": "LineString", "coordinates": [ [ -66.4361, -30.894 ], [ -66.4326, -30.8853 ], [ -66.4365, -30.8594 ], [ -66.4246, -30.8562 ] ] } },
{ "type": "Feature", "properties": { "nombre": "Camino sin nombre", "longitud_km": 3.11 }, "geometry": { "type": "LineString", "coordinates": [ [ -66.4667, -30.8845 ], [ -66.4361, -30.894 ] ] } },
{ "type": "Feature", "properties": { "nombre": "Camino sin nombre", "longitud_km": 3.68 }, "geometry": { "type": "LineString", "coordinates": [ [ -66.4667, -30.8845 ], [ -66.4496, -30.8988 ], [ -66.4361, -30.894 ] ] } },
{ "type": "Feature", "properties": { "nombre": "Camino sin nombre", "longitud_km": 2.17 }, "geometry": { "type": "LineString", "coordinates": [ [ -66.2034, -30.8996 ], [ -66.182, -30.9062 ] ] } },
{ "type": "Feature", "properties": { "nombre": "Camino sin nombre", "longitud_km": 16.21 }, "geometry": { "type": "LineString", "coordinates": [ [ -66.9618, -30.8006 ], [ -66.9697, -30.8753 ], [ -66.9566, -30.9456 ] ] } },
{ "type": "Feature", "properties": { "nombre": "Camino sin nombre", "longitud_km": 1.74 }, "geometry": { "type": "LineString", "coordinates": [ [ -66.4089, -30.9133 ], [ -66.4019, -30.8988 ] ] } },
{ "type": "Feature", "properties": { "nombre": "Camino sin nombre", "longitud_km": 2.43 }, "geometry": { "type": "LineString", "coordinates": [ [ -66.2034, -30.8996 ], [ -66.2097, -30.9209 ] ] } },
{ "type": "Feature", "properties": { "nombre": "Camino sin nombre", "longitud_km": 1.25 }, "geometry": { "type": "LineString", "coordinates": [ [ -66.457, -30.9344 ], [ -66.4439, -30.9345 ] ] } },
{ "type": "Feature", "properties": { "nombre": "Camino sin nombre", "longitud_km": 9.77 }, "geometry": { "type": "LineString", "coordinates": [ [ -66.0178, -30.943 ], [ -66.0308, -30.9201 ], [ -66.0371, -30.8844 ], [ -66.0503, -30.8604 ] ] } },
{ "type": "Feature", "properties": { "nombre": "Camino sin nombre", "longitud_km": 2.3 }, "geometry": { "type": "LineString", "coordinates": [ [ -66.0691, -30.9465 ], [ -66.0703, -30.9258 ] ] } },
{ "type": "Feature", "properties": { "nombre": "Camino sin nombre", "longitud_km": 6.66 }, "geometry": { "type": "LineString", "coordinates": [ [ -66.0691, -30.9465 ], [ -66.0905, -30.9216 ], [ -66.1083, -30.9196 ], [ -66.1183, -30.9302 ] ] } },
{ "type": "Feature", "properties": { "nombre": "Camino sin nombre", "longitud_km": 2.07 }, "geometry": { "type": "LineString", "coordinates": [ [ -66.1183, -30.9302 ], [ -66.1183, -30.9489 ] ] } },
{ "type": "Feature", "properties": { "nombre": "Camino sin nombre", "longitud_km": 3.66 }, "geometry": { "type": "LineString", "coordinates": [ [ -66.2097, -30.9209 ], [ -66.2171, -30.9533 ] ] } },
{ "type": "Feature", "properties": { "nombre": "Camino sin nombre", "longitud_km": 3.8 }, "geometry": { "type": "LineString", "coordinates": [ [ -66.4439, -30.9345 ], [ -66.4142, -30.9436 ], [ -66.4089, -30.9491 ] ] } },
{ "type": "Feature", "properties": { "nombre": "Camino sin nombre", "longitud_km": 6.64 }, "geometry": { "type": "LineString", "coordinates": [ [ -65.9604, -30.9248 ], [ -65.9353, -30.9622 ], [ -65.936, -30.9701 ], [ -65.9262, -30.9723 ] ] } },
{ "type": "Feature", "properties": { "nombre": "Camino sin nombre", "longitud_km": 2.23 }, "geometry": { "type": "LineString", "coordinates": [ [ -66.4089, -30.9491 ], [ -66.3939, -30.9518 ], [ -66.3898, -30.9578 ] ] } },
{ "type": "Feature", "properties": { "nombre": "Camino sin nombre", "longitud_km": 12.9 }, "geometry": { "type": "LineString", "coordinates": [ [ -65.7946, -30.9675 ], [ -65.8324, -30.9688 ], [ -65.8392, -30.9737 ], [ -65.8588, -30.9691 ], [ -65.8885, -30.9746 ], [ -65.9262, -30.9723 ] ] } },
{ "type": "Feature", "properties": { "nombre": "Camino sin nombre", "longitud_km": 2.29 }, "geometry": { "type": "LineString", "coordinates": [ [ -66.1183, -30.9489 ], [ -66.1243, -30.9688 ] ] } },
{ "type": "Feature", "properties": { "nombre": "Camino sin nombre", "longitud_km": 6.07 }, "geometry": { "type": "LineString", "coordinates": [ [ -66.1183, -30.9489 ], [ -66.0951, -30.9416 ], [ -66.0925, -30.9749 ] ] } },
{ "type": "Feature", "properties": { "nombre": "Camino sin nombre", "longitud_km": 4.03 }, "geometry": { "type": "LineString", "coordinates": [ [ -66.0178, -30.943 ], [ -66.0206, -30.9538 ], [ -66.0114, -30.9777 ] ] } },
{ "type": "Feature", "properties": { "nombre": "Camino sin nombre", "longitud_km": 6.73 }, "geometry": { "type": "LineString", "coordinates": [ [ -66.0691, -30.9465 ], [ -66.0404, -30.9531 ], [ -66.0114, -30.9777 ] ] } },
{ "type": "Feature", "properties": { "nombre": "Camino sin nombre", "longitud_km": 1.35 }, "geometry": { "type": "LineString", "coordinates": [ [ -66.198, -30.9669 ], [ -66.2063, -30.9767 ] ] } },
{ "type": "Feature", "properties": { "nombre": "Camino sin nombre", "longitud_km": 2.82 }, "geometry": { "type": "LineString", "coordinates": [ [ -66.4143, -30.9719 ], [ -66.3898, -30.9578 ] ] } },
{ "type": "Feature", "properties": { "nombre": "Camino sin nombre", "longitud_km": 1.34 }, "geometry": { "type": "LineString", "coordinates": [ [ -66.1875, -30.967 ], [ -66.1909, -30.9788 ] ] } },
{ "type": "Feature", "properties": { "nombre": "Camino sin nombre", "longitud_km": 2.62 }, "geometry": { "type": "LineString", "coordinates": [ [ -66.3898, -30.9578 ], [ -66.3822, -30.9687 ], [ -66.3715, -30.9744 ] ] } },
{ "type": "Feature", "properties": { "nombre": "Camino sin nombre", "longitud_km": 1.68 }, "geometry": { "type": "LineString", "coordinates": [ [ -66.156, -30.9673 ], [ -66.165, -30.9803 ] ] } },
{ "type": "Feature", "properties": { "nombre": "Camino sin nombre", "longitud_km": 4.94 }, "geometry": { "type": "LineString", "coordinates": [ [ -66.3744, -30.9387 ], [ -66.3514, -30.9692 ], [ -66.3527, -30.9773 ] ] } },
{ "type": "Feature", "properties": { "nombre": "Camino sin nombre", "longitud_km": 13.56 }, "geometry": { "type": "LineString", "coordinates": [ [ -66.3456, -30.981 ], [ -66.3498, -30.9082 ], [ -66.3569, -30.9015 ], [ -66.3754, -30.9058 ], [ -66.4019, -30.8988 ] ] } },
{ "type": "Feature", "properties": { "nombre": "Camino sin nombre", "longitud_km": 1.17 }, "geometry": { "type": "LineString", "coordinates": [ [ -66.0511, -30.9865 ], [ -66.0564, -30.996 ] ] } },
{ "type": "Feature", "properties": { "nombre": "Camino sin nombre", "longitud_km": 2.53 }, "geometry": { "type": "LineString", "coordinates": [ [ -66.0114, -30.9777 ], [ -66.0091, -30.9837 ], [ -66.0164, -30.999 ] ] } },
{ "type": "Feature", "properties": { "nombre": "Camino sin nombre", "longitud_km": 0.38 }, "geometry": { "type": "LineString", "coordinates": [ [ -66.0228, -31.0 ], [ -66.0226, -30.9965 ] ] } },
{ "type": "Feature", "properties": { "nombre": "Camino sin nombre", "longitud_km": 4.87 }, "geometry": { "type": "LineString", "coordinates": [ [ -66.3742, -30.975 ], [ -66.3706, -30.986 ], [ -66.3767, -30.9915 ], [ -66.3994, -30.9762 ] ] } },
{ "type": "Feature", "properties": { "nombre": "Camino sin nombre", "longitud_km": 3.16 }, "geometry": { "type": "LineString", "coordinates": [ [ -66.1108, -30.9998 ], [ -66.0972, -30.9739 ] ] } },
{ "type": "Feature", "properties": { "nombre": "Camino sin nombre", "longitud_km": 24.99 }, "geometry": { "type": "LineString", "coordinates": [ [ -66.4439, -30.9345 ], [ -66.4483, -30.925 ], [ -66.4634, -30.9236 ], [ -66.4887, -30.9393 ], [ -66.5039, -30.9406 ], [ -66.5153, -30.9296 ], [ -66.5279, -30.9651 ], [ -66.5221, -30.9822 ], [ -66.5157, -30.978 ], [ -66.4816, -30.9821 ], [ -66.4744, -30.9891 ], [ -66.466, -30.9878 ], [ -66.4658, -30.9963 ], [ -66.4608, -30.9985 ], [ -66.4512, -30.9978 ], [ -66.4386, -30.9845 ] ] } },
{ "type": "Feature", "properties": { "nombre": "Camino sin nombre", "longitud_km": 9.63 }, "geometry": { "type": "LineString", "coordinates": [ [ -66.0868, -31.0685 ], [ -66.1041, -31.06 ], [ -66.1262, -31.0292 ], [ -66.1268, -31.0206 ], [ -66.1106, -30.9999 ] ] } },
{ "type": "Feature", "properties": { "nombre": "Camino sin nombre", "longitud_km": 11.72 }, "geometry": { "type": "LineString", "coordinates": [ [ -66.0262, -31.1863 ], [ -66.0073, -31.1058 ], [ -65.9821, -31.0964 ] ] } },
{ "type": "Feature", "properties": { "nombre": "Camino sin nombre", "longitud_km": 19.87 }, "geometry": { "type": "LineString", "coordinates": [ [ -66.1493, -31.1073 ], [ -66.1595, -31.1501 ], [ -66.1433, -31.1782 ], [ -66.1346, -31.1833 ], [ -66.0444, -31.193 ], [ -66.0262, -31.1863 ] ] } },
{ "type": "Feature", "properties": { "nombre": "Camino sin nombre", "longitud_km": 3.02 }, "geometry": { "type": "LineString", "coordinates": [ [ -66.3154, -31.186 ], [ -66.284, -31.1898 ] ] } },
{ "type": "Feature", "properties": { "nombre": "Camino sin nombre", "longitud_km": 3.86 }, "geometry": { "type": "LineString", "coordinates": [ [ -66.0262, -31.1863 ], [ -66.0, -31.2129 ] ] } },
{ "type": "Feature", "properties": { "nombre": "Camino sin nombre", "longitud_km": 18.77 }, "geometry": { "type": "LineString", "coordinates": [ [ -66.4069, -31.2981 ], [ -66.3944, -31.2804 ], [ -66.3884, -31.2604 ], [ -66.4054, -31.2437 ], [ -66.4054, -31.2361 ], [ -66.3904, -31.2178 ], [ -66.3761, -31.2094 ], [ -66.3378, -31.2082 ], [ -66.3091, -31.2213 ] ] } },
{ "type": "Feature", "properties": { "nombre": "Camino sin nombre", "longitud_km": 28.65 }, "geometry": { "type": "LineString", "coordinates": [ [ -66.5479, -31.1147 ], [ -66.5478, -31.1295 ], [ -66.5331, -31.1439 ], [ -66.5357, -31.1501 ], [ -66.5309, -31.1546 ], [ -66.524, -31.2056 ], [ -66.5306, -31.2078 ], [ -66.5334, -31.215 ], [ -66.5485, -31.2162 ], [ -66.5602, -31.2415 ], [ -66.5577, -31.2478 ], [ -66.5871, -31.2634 ], [ -66.5907, -31.3333 ] ] } },
{ "type": "Feature", "properties": { "nombre": "Camino sin nombre", "longitud_km": 11.84 }, "geometry": { "type": "LineString", "coordinates": [ [ -66.0061, -31.3305 ], [ -65.9936, -31.2815 ], [ -65.9864, -31.2756 ], [ -65.9827, -31.2592 ], [ -65.9673, -31.2465 ], [ -65.9632, -31.2339 ] ] } },
{ "type": "Feature", "properties": { "nombre": "Camino sin nombre", "longitud_km": 10.47 }, "geometry": { "type": "LineString", "coordinates": [ [ -65.9547, -31.3968 ], [ -66.06, -31.3694 ] ] } },
{ "type": "Feature", "properties": { "nombre": "Camino sin nombre", "longitud_km": 27.98 }, "geometry": { "type": "LineString", "coordinates": [ [ -66.2051, -31.866 ], [ -66.1722, -31.8654 ], [ -66.1413, -31.875 ], [ -66.1185, -31.8962 ], [ -66.045, -31.8837 ], [ -66.0147, -31.8894 ], [ -65.98, -31.8889 ], [ -65.9285, -31.9067 ] ] } },
{ "type": "Feature", "properties": { "nombre": "Camino sin nombre", "longitud_km": 0.34 }, "geometry": { "type": "LineString", "coordinates": [ [ -67.0534, -28.3199 ], [ -67.05, -28.3207 ] ] } },
{ "type": "Feature", "properties": { "nombre": "Camino sin nombre", "longitud_km": 0.87 }, "geometry": { "type": "LineString", "coordinates": [ [ -66.9742, -28.9346 ], [ -66.9718, -28.9422 ] ] } },
{ "type": "Feature", "properties": { "nombre": "Camino sin nombre", "longitud_km": 0.71 }, "geometry": { "type": "LineString", "coordinates": [ [ -67.05, -28.3207 ], [ -67.0458, -28.3154 ] ] } },
{ "type": "Feature", "properties": { "nombre": "Camino sin nombre", "longitud_km": 2.62 }, "geometry": { "type": "LineString", "coordinates": [ [ -67.0706, -28.3471 ], [ -67.0551, -28.3279 ] ] } },
{ "type": "Feature", "properties": { "nombre": "Camino sin nombre", "longitud_km": 0.56 }, "geometry": { "type": "LineString", "coordinates": [ [ -67.0586, -28.3194 ], [ -67.0567, -28.3241 ] ] } },
{ "type": "Feature", "properties": { "nombre": "Camino sin nombre", "longitud_km": 3.96 }, "geometry": { "type": "LineString", "coordinates": [ [ -67.082, -28.291 ], [ -67.0641, -28.3071 ], [ -67.0586, -28.3194 ] ] } },
{ "type": "Feature", "properties": { "nombre": "Camino sin nombre", "longitud_km": 0.52 }, "geometry": { "type": "LineString", "coordinates": [ [ -67.0586, -28.3194 ], [ -67.0534, -28.3199 ] ] } },
{ "type": "Feature", "properties": { "nombre": "Camino sin nombre", "longitud_km": 7.9 }, "geometry": { "type": "LineString", "coordinates": [ [ -67.0458, -28.3154 ], [ -67.0353, -28.3 ], [ -67.0137, -28.2896 ], [ -67.0023, -28.2636 ], [ -67.0064, -28.2633 ] ] } },
{ "type": "Feature", "properties": { "nombre": "Camino sin nombre", "longitud_km": 0.94 }, "geometry": { "type": "LineString", "coordinates": [ [ -67.0551, -28.3279 ], [ -67.05, -28.3207 ] ] } },
{ "type": "Feature", "properties": { "nombre": "Camino sin nombre", "longitud_km": 0.44 }, "geometry": { "type": "LineString", "coordinates": [ [ -67.0567, -28.3241 ], [ -67.0551, -28.3279 ] ] } },
{ "type": "Feature", "properties": { "nombre": "Camino sin nombre", "longitud_km": 19.36 }, "geometry": { "type": "LineString", "coordinates": [ [ -67.05, -28.3207 ], [ -66.9926, -28.327 ], [ -66.9732, -28.3351 ], [ -66.9585, -28.3499 ], [ -66.9598, -28.3672 ], [ -66.9517, -28.3642 ], [ -66.9437, -28.3707 ], [ -66.9248, -28.3886 ], [ -66.9104, -28.4108 ] ] } },
{ "type": "Feature", "properties": { "nombre": "Camino sin nombre", "longitud_km": 17.2 }, "geometry": { "type": "LineString", "coordinates": [ [ -66.9104, -28.4108 ], [ -66.8186, -28.5431 ] ] } },
{ "type": "Feature", "properties": { "nombre": "Camino sin nombre", "longitud_km": 4.14 }, "geometry": { "type": "LineString", "coordinates": [ [ -66.8122, -28.5531 ], [ -66.7906, -28.5372 ], [ -66.7766, -28.535 ] ] } },
{ "type": "Feature", "properties": { "nombre": "Camino sin nombre", "longitud_km": 9.65 }, "geometry": { "type": "LineString", "coordinates": [ [ -66.8112, -28.5603 ], [ -66.8329, -28.5803 ], [ -66.8583, -28.6353 ] ] } },
{ "type": "Feature", "properties": { "nombre": "Camino sin nombre", "longitud_km": 1.79 }, "geometry": { "type": "LineString", "coordinates": [ [ -67.4469, -28.5909 ], [ -67.4474, -28.5747 ] ] } },
{ "type": "Feature", "properties": { "nombre": "Camino sin nombre", "longitud_km": 1.1 }, "geometry": { "type": "LineString", "coordinates": [ [ -66.8535, -28.6324 ], [ -66.8469, -28.6405 ] ] } },
{ "type": "Feature", "properties": { "nombre": "Camino sin nombre", "longitud_km": 1.13 }, "geometry": { "type": "LineString", "coordinates": [ [ -66.8469, -28.6405 ], [ -66.8582, -28.6427 ] ] } },
{ "type": "Feature", "properties": { "nombre": "Camino sin nombre", "longitud_km": 0.41 }, "geometry": { "type": "LineString", "coordinates": [ [ -66.8582, -28.6427 ], [ -66.8622, -28.6438 ] ] } },
{ "type": "Feature", "properties": { "nombre": "Camino sin nombre", "longitud_km": 1.02 }, "geometry": { "type": "LineString", "coordinates": [ [ -66.8583, -28.6353 ], [ -66.8622, -28.6438 ] ] } },
{ "type": "Feature", "properties": { "nombre": "Camino sin nombre", "longitud_km": 5.51 }, "geometry": { "type": "LineString", "coordinates": [ [ -66.8039, -28.6749 ], [ -66.7483, -28.6667 ] ] } },
{ "type": "Feature", "properties": { "nombre": "Camino sin nombre", "longitud_km": 2.84 }, "geometry": { "type": "LineString", "coordinates": [ [ -66.8469, -28.6405 ], [ -66.8305, -28.6616 ] ] } },
{ "type": "Feature", "properties": { "nombre": "Camino sin nombre", "longitud_km": 2.06 }, "geometry": { "type": "LineString", "coordinates": [ [ -66.8622, -28.6438 ], [ -66.8703, -28.661 ] ] } },
{ "type": "Feature", "properties": { "nombre": "Camino sin nombre", "longitud_km": 0.35 }, "geometry": { "type": "LineString", "coordinates": [ [ -66.8703, -28.661 ], [ -66.867, -28.662 ] ] } },
{ "type": "Feature", "properties": { "nombre": "Camino sin nombre", "longitud_km": 1.07 }, "geometry": { "type": "LineString", "coordinates": [ [ -66.8305, -28.6616 ], [ -66.8326, -28.6711 ] ] } },
{ "type": "Feature", "properties": { "nombre": "Camino sin nombre", "longitud_km": 3.5 }, "geometry": { "type": "LineString", "coordinates": [ [ -66.867, -28.662 ], [ -66.8326, -28.6711 ] ] } },
{ "type": "Feature", "properties": { "nombre": "Camino sin nombre", "longitud_km": 1.3 }, "geometry": { "type": "LineString", "coordinates": [ [ -66.8305, -28.6616 ], [ -66.8244, -28.672 ] ] } },
{ "type": "Feature", "properties": { "nombre": "Camino sin nombre", "longitud_km": 0.82 }, "geometry": { "type": "LineString", "coordinates": [ [ -66.8326, -28.6711 ], [ -66.8244, -28.672 ] ] } },
{ "type": "Feature", "properties": { "nombre": "Camino sin nombre", "longitud_km": 4.88 }, "geometry": { "type": "LineString", "coordinates": [ [ -66.9203, -28.6604 ], [ -66.925, -28.6665 ], [ -66.9405, -28.6644 ], [ -66.9627, -28.6761 ] ] } },
{ "type": "Feature", "properties": { "nombre": "Camino sin nombre", "longitud_km": 0.95 }, "geometry": { "type": "LineString", "coordinates": [ [ -66.8039, -28.6749 ], [ -66.8014, -28.6666 ] ] } },
{ "type": "Feature", "properties": { "nombre": "Camino sin nombre", "longitud_km": 2.02 }, "geometry": { "type": "LineString", "coordinates": [ [ -66.8244, -28.672 ], [ -66.8039, -28.6749 ] ] } },
{ "type": "Feature", "properties": { "nombre": "Camino sin nombre", "longitud_km": 7.08 }, "geometry": { "type": "LineString", "coordinates": [ [ -66.9203, -28.6604 ], [ -66.9141, -28.6877 ], [ -66.9189, -28.7089 ], [ -66.9268, -28.7169 ], [ -66.9233, -28.7192 ] ] } },
{ "type": "Feature", "properties": { "nombre": "Camino sin nombre", "longitud_km": 8.4 }, "geometry": { "type": "LineString", "coordinates": [ [ -66.8703, -28.661 ], [ -66.9072, -28.7101 ], [ -66.9233, -28.7192 ] ] } },
{ "type": "Feature", "properties": { "nombre": "Camino sin nombre", "longitud_km": 0.29 }, "geometry": { "type": "LineString", "coordinates": [ [ -66.9233, -28.7192 ], [ -66.9233, -28.7218 ] ] } },
{ "type": "Feature", "properties": { "nombre": "Camino sin nombre", "longitud_km": 0.33 }, "geometry": { "type": "LineString", "coordinates": [ [ -66.9233, -28.7218 ], [ -66.9232, -28.7248 ] ] } },
{ "type": "Feature", "properties": { "nombre": "Camino sin nombre", "longitud_km": 10.87 }, "geometry": { "type": "LineString", "coordinates": [ [ -66.9033, -28.7192 ], [ -66.8523, -28.7344 ], [ -66.7952, -28.7399 ] ] } },
{ "type": "Feature", "properties": { "nombre": "Camino sin nombre", "longitud_km": 3.05 }, "geometry": { "type": "LineString", "coordinates": [ [ -66.9232, -28.7248 ], [ -66.9239, -28.7523 ] ] } },
{ "type": "Feature", "properties": { "nombre": "Camino sin nombre", "longitud_km": 8.36 }, "geometry": { "type": "LineString", "coordinates": [ [ -66.7635, -28.7526 ], [ -66.7687, -28.767 ], [ -66.7535, -28.801 ], [ -66.7505, -28.8174 ], [ -66.7554, -28.8232 ] ] } },
{ "type": "Feature", "properties": { "nombre": "Camino sin nombre", "longitud_km": 4.93 }, "geometry": { "type": "LineString", "coordinates": [ [ -66.935, -28.8412 ], [ -66.9433, -28.8365 ], [ -66.9377, -28.801 ] ] } },
{ "type": "Feature", "properties": { "nombre": "Camino sin nombre", "longitud_km": 3.26 }, "geometry": { "type": "LineString", "coordinates": [ [ -66.9308, -28.8064 ], [ -66.9308, -28.8266 ], [ -66.926, -28.8348 ] ] } },
{ "type": "Feature", "properties": { "nombre": "Camino sin nombre", "longitud_km": 6.03 }, "geometry": { "type": "LineString", "coordinates": [ [ -66.9239, -28.7523 ], [ -66.9308, -28.8064 ] ] } },
{ "type": "Feature", "properties": { "nombre": "Camino sin nombre", "longitud_km": 14.76 }, "geometry": { "type": "LineString", "coordinates": [ [ -67.4417, -28.8577 ], [ -67.3947, -28.8268 ], [ -67.3437, -28.8185 ], [ -67.3204, -28.8254 ], [ -67.3045, -28.8231 ] ] } },
{ "type": "Feature", "properties": { "nombre": "Camino sin nombre", "longitud_km": 0.78 }, "geometry": { "type": "LineString", "coordinates": [ [ -66.9284, -28.845 ], [ -66.935, -28.8412 ] ] } },
{ "type": "Feature", "properties": { "nombre": "Camino sin nombre", "longitud_km": 6.3 }, "geometry": { "type": "LineString", "coordinates": [ [ -66.935, -28.8412 ], [ -66.94, -28.8566 ], [ -66.9668, -28.8899 ] ] } },
{ "type": "Feature", "properties": { "nombre": "Camino sin nombre", "longitud_km": 2.07 }, "geometry": { "type": "LineString", "coordinates": [ [ -66.9458, -28.8874 ], [ -66.9668, -28.8899 ] ] } },
{ "type": "Feature", "properties": { "nombre": "Camino sin nombre", "longitud_km": 0.25 }, "geometry": { "type": "LineString", "coordinates": [ [ -66.9668, -28.8899 ], [ -66.9692, -28.8909 ] ] } },
{ "type": "Feature", "properties": { "nombre": "Camino sin nombre", "longitud_km": 5.02 }, "geometry": { "type": "LineString", "coordinates": [ [ -66.9692, -28.8909 ], [ -66.9745, -28.8973 ], [ -66.9742, -28.9346 ] ] } },
{ "type": "Feature", "properties": { "nombre": "Camino sin nombre", "longitud_km": 0.4 }, "geometry": { "type": "LineString", "coordinates": [ [ -67.481, -29.1627 ], [ -67.4849, -29.1616 ] ] } },
{ "type": "Feature", "properties": { "nombre": "Camino sin nombre", "longitud_km": 2.4 }, "geometry": { "type": "LineString", "coordinates": [ [ -68.2242, -29.0088 ], [ -68.2454, -28.9978 ] ] } },
{ "type": "Feature", "properties": { "nombre": "Camino sin nombre", "longitud_km": 0.11 }, "geometry": { "type": "LineString", "coordinates": [ [ -67.4946, -29.1675 ], [ -67.4957, -29.1673 ] ] } },
{ "type": "Feature", "properties": { "nombre": "Camino sin nombre", "longitud_km": 0.8 }, "geometry": { "type": "LineString", "coordinates": [ [ -66.3669, -29.3355 ], [ -66.3677, -29.3427 ] ] } },
{ "type": "Feature", "properties": { "nombre": "Camino sin nombre", "longitud_km": 10.0 }, "geometry": { "type": "LineString", "coordinates": [ [ -66.3677, -29.3427 ], [ -66.349, -29.3658 ], [ -66.3301, -29.4254 ] ] } },
{ "type": "Feature", "properties": { "nombre": "Camino sin nombre", "longitud_km": 38.63 }, "geometry": { "type": "LineString", "coordinates": [ [ -66.8807, -29.7706 ], [ -66.8766, -29.696 ], [ -66.8969, -29.6268 ], [ -66.8989, -29.6083 ], [ -66.8924, -29.5906 ], [ -66.8977, -29.5803 ], [ -66.8886, -29.5194 ], [ -66.8817, -29.5034 ], [ -66.8685, -29.5004 ], [ -66.8587, -29.4374 ] ] } },
{ "type": "Feature", "properties": { "nombre": "Camino sin nombre", "longitud_km": 19.67 }, "geometry": { "type": "LineString", "coordinates": [ [ -66.0087, -29.4461 ], [ -66.0653, -29.5095 ], [ -66.0949, -29.603 ] ] } },
{ "type": "Feature", "properties": { "nombre": "Camino sin nombre", "longitud_km": 9.55 }, "geometry": { "type": "LineString", "coordinates": [ [ -66.1846, -29.5766 ], [ -66.177, -29.5793 ], [ -66.1723, -29.5876 ], [ -66.1316, -29.5992 ], [ -66.0949, -29.603 ] ] } },
{ "type": "Feature", "properties": { "nombre": "Camino sin nombre", "longitud_km": 3.0 }, "geometry": { "type": "LineString", "coordinates": [ [ -66.0949, -29.603 ], [ -66.0976, -29.63 ] ] } },
{ "type": "Feature", "properties": { "nombre": "Camino sin nombre", "longitud_km": 1.2 }, "geometry": { "type": "LineString", "coordinates": [ [ -66.3211, -30.3533 ], [ -66.3089, -30.3514 ] ] } },
{ "type": "Feature", "properties": { "nombre": "Camino sin nombre", "longitud_km": 29.61 }, "geometry": { "type": "LineString", "coordinates": [ [ -66.9007, -30.4865 ], [ -66.8584, -30.4965 ], [ -66.8147, -30.4936 ], [ -66.7624, -30.4989 ], [ -66.7143, -30.4792 ], [ -66.6743, -30.4745 ], [ -66.6594, -30.4644 ], [ -66.6448, -30.4644 ], [ -66.6061, -30.4759 ] ] } },
{ "type": "Feature", "properties": { "nombre": "Camino sin nombre", "longitud_km": 1.99 }, "geometry": { "type": "LineString", "coordinates": [ [ -66.2624, -30.6327 ], [ -66.2444, -30.6415 ] ] } },
{ "type": "Feature", "properties": { "nombre": "Camino sin nombre", "longitud_km": 7.07 }, "geometry": { "type": "LineString", "coordinates": [ [ -66.2444, -30.6415 ], [ -66.2311, -30.6466 ], [ -66.2251, -30.6572 ], [ -66.2014, -30.6743 ], [ -66.1956, -30.686 ] ] } },
{ "type": "Feature", "properties": { "nombre": "Camino sin nombre", "longitud_km": 11.17 }, "geometry": { "type": "LineString", "coordinates": [ [ -66.9458, -30.711 ], [ -66.9413, -30.6422 ], [ -66.9277, -30.6126 ] ] } },
{ "type": "Feature", "properties": { "nombre": "Camino sin nombre", "longitud_km": 2.9 }, "geometry": { "type": "LineString", "coordinates": [ [ -66.1956, -30.686 ], [ -66.1964, -30.7122 ] ] } },
{ "type": "Feature", "properties": { "nombre": "Camino sin nombre", "longitud_km": 9.93 }, "geometry": { "type": "LineString", "coordinates": [ [ -66.1964, -30.7122 ], [ -66.1936, -30.7407 ], [ -66.1856, -30.7558 ], [ -66.1903, -30.7661 ], [ -66.204, -30.7704 ], [ -66.2078, -30.7854 ], [ -66.2131, -30.7882 ] ] } },
{ "type": "Feature", "properties": { "nombre": "Camino sin nombre", "longitud_km": 9.08 }, "geometry": { "type": "LineString", "coordinates": [ [ -66.6673, -30.7567 ], [ -66.6607, -30.7742 ], [ -66.6469, -30.7906 ], [ -66.6284, -30.8041 ], [ -66.6029, -30.8077 ] ] } },
{ "type": "Feature", "properties": { "nombre": "Camino sin nombre", "longitud_km": 2.99 }, "geometry": { "type": "LineString", "coordinates": [ [ -66.2131, -30.7882 ], [ -66.2275, -30.8021 ], [ -66.2289, -30.8104 ] ] } },
{ "type": "Feature", "properties": { "nombre": "Camino sin nombre", "longitud_km": 6.79 }, "geometry": { "type": "LineString", "coordinates": [ [ -66.9566, -30.77 ], [ -66.9433, -30.7403 ], [ -66.9458, -30.711 ] ] } },
{ "type": "Feature", "properties": { "nombre": "Camino sin nombre", "longitud_km": 7.07 }, "geometry": { "type": "LineString", "coordinates": [ [ -66.2289, -30.8104 ], [ -66.2492, -30.8067 ], [ -66.2729, -30.8165 ], [ -66.2899, -30.8127 ], [ -66.2951, -30.8192 ] ] } },
{ "type": "Feature", "properties": { "nombre": "Camino sin nombre", "longitud_km": 1.71 }, "geometry": { "type": "LineString", "coordinates": [ [ -66.2112, -30.808 ], [ -66.2289, -30.8104 ] ] } },
{ "type": "Feature", "properties": { "nombre": "Camino sin nombre", "longitud_km": 8.11 }, "geometry": { "type": "LineString", "coordinates": [ [ -66.2289, -30.8104 ], [ -66.2169, -30.8465 ], [ -66.2166, -30.8713 ], [ -66.2108, -30.8809 ] ] } },
{ "type": "Feature", "properties": { "nombre": "Camino sin nombre", "longitud_km": 2.69 }, "geometry": { "type": "LineString", "coordinates": [ [ -66.2171, -30.9533 ], [ -66.1904, -30.961 ] ] } },
{ "type": "Feature", "properties": { "nombre": "Camino sin nombre", "longitud_km": 5.51 }, "geometry": { "type": "LineString", "coordinates": [ [ -66.1904, -30.961 ], [ -66.189, -30.9486 ], [ -66.1851, -30.9473 ], [ -66.1616, -30.9513 ], [ -66.1633, -30.9641 ] ] } },
{ "type": "Feature", "properties": { "nombre": "Camino sin nombre", "longitud_km": 2.62 }, "geometry": { "type": "LineString", "coordinates": [ [ -66.1904, -30.961 ], [ -66.1633, -30.9641 ] ] } },
{ "type": "Feature", "properties": { "nombre": "Camino sin nombre", "longitud_km": 2.79 }, "geometry": { "type": "LineString", "coordinates": [ [ -66.1633, -30.9641 ], [ -66.1341, -30.966 ] ] } },
{ "type": "Feature", "properties": { "nombre": "Camino sin nombre", "longitud_km": 1.87 }, "geometry": { "type": "LineString", "coordinates": [ [ -66.8493, -28.3835 ], [ -66.8311, -28.3786 ] ] } },
{ "type": "Feature", "properties": { "nombre": "Camino sin nombre", "longitud_km": 5.14 }, "geometry": { "type": "LineString", "coordinates": [ [ -66.8964, -28.4039 ], [ -66.8493, -28.3835 ] ] } },
{ "type": "Feature", "properties": { "nombre": "Camino sin nombre", "longitud_km": 1.58 }, "geometry": { "type": "LineString", "coordinates": [ [ -66.9104, -28.4108 ], [ -66.8964, -28.4039 ] ] } },
{ "type": "Feature", "properties": { "nombre": "Camino sin nombre", "longitud_km": 0.87 }, "geometry": { "type": "LineString", "coordinates": [ [ -66.5338, -28.6554 ], [ -66.5385, -28.6486 ] ] } },
{ "type": "Feature", "properties": { "nombre": "Camino sin nombre", "longitud_km": 1.47 }, "geometry": { "type": "LineString", "coordinates": [ [ -66.7892, -28.5835 ], [ -66.7795, -28.5733 ] ] } },
{ "type": "Feature", "properties": { "nombre": "Camino sin nombre", "longitud_km": 5.76 }, "geometry": { "type": "LineString", "coordinates": [ [ -66.5376, -28.6456 ], [ -66.5447, -28.61 ], [ -66.5516, -28.5993 ], [ -66.5484, -28.5971 ] ] } },
{ "type": "Feature", "properties": { "nombre": "Camino sin nombre", "longitud_km": 0.59 }, "geometry": { "type": "LineString", "coordinates": [ [ -66.5435, -28.6445 ], [ -66.5376, -28.6456 ] ] } },
{ "type": "Feature", "properties": { "nombre": "Camino sin nombre", "longitud_km": 0.34 }, "geometry": { "type": "LineString", "coordinates": [ [ -66.5385, -28.6486 ], [ -66.5376, -28.6456 ] ] } },
{ "type": "Feature", "properties": { "nombre": "Camino sin nombre", "longitud_km": 0.67 }, "geometry": { "type": "LineString", "coordinates": [ [ -66.5385, -28.6486 ], [ -66.5435, -28.6445 ] ] } },
{ "type": "Feature", "properties": { "nombre": "Camino sin nombre", "longitud_km": 1.36 }, "geometry": { "type": "LineString", "coordinates": [ [ -66.5435, -28.6445 ], [ -66.5539, -28.6526 ] ] } },
{ "type": "Feature", "properties": { "nombre": "Camino sin nombre", "longitud_km": 3.38 }, "geometry": { "type": "LineString", "coordinates": [ [ -66.5107, -28.667 ], [ -66.5451, -28.6642 ] ] } },
{ "type": "Feature", "properties": { "nombre": "Camino sin nombre", "longitud_km": 5.97 }, "geometry": { "type": "LineString", "coordinates": [ [ -66.8622, -28.6438 ], [ -66.9203, -28.6604 ] ] } },
{ "type": "Feature", "properties": { "nombre": "Camino sin nombre", "longitud_km": 1.89 }, "geometry": { "type": "LineString", "coordinates": [ [ -66.9049, -28.7269 ], [ -66.9233, -28.7218 ] ] } },
{ "type": "Feature", "properties": { "nombre": "Camino sin nombre", "longitud_km": 3.77 }, "geometry": { "type": "LineString", "coordinates": [ [ -66.9232, -28.7248 ], [ -66.9342, -28.7451 ], [ -66.9239, -28.7523 ] ] } },
{ "type": "Feature", "properties": { "nombre": "Camino sin nombre", "longitud_km": 1.42 }, "geometry": { "type": "LineString", "coordinates": [ [ -66.9239, -28.7523 ], [ -66.9097, -28.755 ] ] } },
{ "type": "Feature", "properties": { "nombre": "Camino sin nombre", "longitud_km": 2.05 }, "geometry": { "type": "LineString", "coordinates": [ [ -66.9498, -28.8981 ], [ -66.9692, -28.8909 ] ] } },
{ "type": "Feature", "properties": { "nombre": "Camino sin nombre", "longitud_km": 8.96 }, "geometry": { "type": "LineString", "coordinates": [ [ -66.3022, -28.8872 ], [ -66.3672, -28.9443 ] ] } },
{ "type": "Feature", "properties": { "nombre": "Camino sin nombre", "longitud_km": 1.44 }, "geometry": { "type": "LineString", "coordinates": [ [ -67.4299, -29.1461 ], [ -67.4284, -29.1397 ], [ -67.4211, -29.1386 ] ] } },
{ "type": "Feature", "properties": { "nombre": "Camino sin nombre", "longitud_km": 0.51 }, "geometry": { "type": "LineString", "coordinates": [ [ -67.4998, -29.1522 ], [ -67.4949, -29.1537 ] ] } },
{ "type": "Feature", "properties": { "nombre": "Camino sin nombre", "longitud_km": 0.08 }, "geometry": { "type": "LineString", "coordinates": [ [ -67.496, -29.1586 ], [ -67.4958, -29.1579 ] ] } },
{ "type": "Feature", "properties": { "nombre": "Camino sin nombre", "longitud_km": 1.7 }, "geometry": { "type": "LineString", "coordinates": [ [ -67.4512, -29.1632 ], [ -67.4346, -29.168 ] ] } },
{ "type": "Feature", "properties": { "nombre": "Camino sin nombre", "longitud_km": 0.38 }, "geometry": { "type": "LineString", "coordinates": [ [ -67.4957, -29.1673 ], [ -67.4972, -29.1641 ] ] } },
{ "type": "Feature", "properties": { "nombre": "Camino sin nombre", "longitud_km": 1.7 }, "geometry": { "type": "LineString", "coordinates": [ [ -67.4957, -29.1673 ], [ -67.4994, -29.1778 ], [ -67.4946, -29.1773 ] ] } },
{ "type": "Feature", "properties": { "nombre": "Camino sin nombre", "longitud_km": 0.68 }, "geometry": { "type": "LineString", "coordinates": [ [ -67.474, -29.176 ], [ -67.4764, -29.1817 ] ] } },
{ "type": "Feature", "properties": { "nombre": "Camino sin nombre", "longitud_km": 0.9 }, "geometry": { "type": "LineString", "coordinates": [ [ -67.4855, -29.1778 ], [ -67.4935, -29.1819 ] ] } },
{ "type": "Feature", "properties": { "nombre": "Camino sin nombre", "longitud_km": 0.75 }, "geometry": { "type": "LineString", "coordinates": [ [ -67.5012, -29.1817 ], [ -67.4935, -29.1819 ] ] } },
{ "type": "Feature", "properties": { "nombre": "Camino sin nombre", "longitud_km": 0.35 }, "geometry": { "type": "LineString", "coordinates": [ [ -67.4647, -29.1861 ], [ -67.4671, -29.1884 ] ] } },
{ "type": "Feature", "properties": { "nombre": "Camino sin nombre", "longitud_km": 0.4 }, "geometry": { "type": "LineString", "coordinates": [ [ -67.0299, -29.2939 ], [ -67.0261, -29.2924 ] ] } },
{ "type": "Feature", "properties": { "nombre": "Camino sin nombre", "longitud_km": 3.19 }, "geometry": { "type": "LineString", "coordinates": [ [ -67.571, -29.3324 ], [ -67.5967, -29.3145 ] ] } },
{ "type": "Feature", "properties": { "nombre": "Camino sin nombre", "longitud_km": 3.62 }, "geometry": { "type": "LineString", "coordinates": [ [ -67.439, -29.3202 ], [ -67.4394, -29.3528 ] ] } },
{ "type": "Feature", "properties": { "nombre": "Camino sin nombre", "longitud_km": 5.04 }, "geometry": { "type": "LineString", "coordinates": [ [ -66.8336, -29.3885 ], [ -66.8023, -29.3522 ] ] } },
{ "type": "Feature", "properties": { "nombre": "Camino sin nombre", "longitud_km": 1.43 }, "geometry": { "type": "LineString", "coordinates": [ [ -66.8482, -29.3903 ], [ -66.8336, -29.3885 ] ] } },
{ "type": "Feature", "properties": { "nombre": "Camino sin nombre", "longitud_km": 1.62 }, "geometry": { "type": "LineString", "coordinates": [ [ -66.8235, -29.4016 ], [ -66.8105, -29.3924 ] ] } },
{ "type": "Feature", "properties": { "nombre": "Camino sin nombre", "longitud_km": 2.03 }, "geometry": { "type": "LineString", "coordinates": [ [ -66.8648, -29.4014 ], [ -66.8482, -29.3903 ] ] } },
{ "type": "Feature", "properties": { "nombre": "Camino sin nombre", "longitud_km": 1.84 }, "geometry": { "type": "LineString", "coordinates": [ [ -66.8389, -29.4045 ], [ -66.8336, -29.3885 ] ] } },
{ "type": "Feature", "properties": { "nombre": "Camino sin nombre", "longitud_km": 4.98 }, "geometry": { "type": "LineString", "coordinates": [ [ -66.9156, -29.4075 ], [ -66.8648, -29.4014 ] ] } },
{ "type": "Feature", "properties": { "nombre": "Camino sin nombre", "longitud_km": 1.07 }, "geometry": { "type": "LineString", "coordinates": [ [ -66.8235, -29.4016 ], [ -66.8283, -29.4102 ] ] } },
{ "type": "Feature", "properties": { "nombre": "Camino sin nombre", "longitud_km": 0.78 }, "geometry": { "type": "LineString", "coordinates": [ [ -66.8389, -29.4045 ], [ -66.8377, -29.4114 ] ] } },
{ "type": "Feature", "properties": { "nombre": "Camino sin nombre", "longitud_km": 2.34 }, "geometry": { "type": "LineString", "coordinates": [ [ -66.8377, -29.4114 ], [ -66.8371, -29.4232 ], [ -66.8264, -29.4231 ] ] } },
{ "type": "Feature", "properties": { "nombre": "Camino sin nombre", "longitud_km": 1.88 }, "geometry": { "type": "LineString", "coordinates": [ [ -66.8629, -29.4209 ], [ -66.8587, -29.4374 ] ] } },
{ "type": "Feature", "properties": { "nombre": "Camino sin nombre", "longitud_km": 2.38 }, "geometry": { "type": "LineString", "coordinates": [ [ -66.8587, -29.4374 ], [ -66.8342, -29.4357 ] ] } },
{ "type": "Feature", "properties": { "nombre": "Camino sin nombre", "longitud_km": 5.48 }, "geometry": { "type": "LineString", "coordinates": [ [ -67.4918, -29.4743 ], [ -67.5092, -29.4833 ], [ -67.5089, -29.4889 ], [ -67.5, -29.5032 ], [ -67.4892, -29.5004 ] ] } },
{ "type": "Feature", "properties": { "nombre": "Camino sin nombre", "longitud_km": 3.14 }, "geometry": { "type": "LineString", "coordinates": [ [ -66.8944, -30.0 ], [ -66.8861, -30.0274 ] ] } },
{ "type": "Feature", "properties": { "nombre": "Camino sin nombre", "longitud_km": 1.16 }, "geometry": { "type": "LineString", "coordinates": [ [ -66.2925, -30.3342 ], [ -66.2944, -30.3445 ] ] } },
{ "type": "Feature", "properties": { "nombre": "Camino sin nombre", "longitud_km": 0.35 }, "geometry": { "type": "LineString", "coordinates": [ [ -66.3093, -30.3629 ], [ -66.308, -30.36 ] ] } },
{ "type": "Feature", "properties": { "nombre": "Camino sin nombre", "longitud_km": 2.43 }, "geometry": { "type": "LineString", "coordinates": [ [ -66.2944, -30.3445 ], [ -66.2971, -30.3663 ] ] } }
]
}
