{
"type": "FeatureCollection",
"name": "tierra-del-fuego",
"crs": { "type": "name", "properties": { "name": "urn:ogc:def:crs:OGC:1.3:CRS84" } },
"xy_coordinate_resolution": 0.0001,
"features": [
{ "type": "Feature", "properties": { "nombre": "Camino sin nombre", "longitud_km": 6.36 }, "geometry": { "type": "LineString", "coordinates": [ [ -67.7035, -53.7728 ], [ -67.7317, -53.7517 ], [ -67.776, -53.7367 ] ] } },
{ "type": "Feature", "properties": { "nombre": "Camino sin nombre", "longitud_km": 1.68 }, "geometry": { "type": "LineString", "coordinates": [ [ -68.5413, -52.7891 ], [ -68.5196, -52.7817 ] ] } },
{ "type": "Feature", "properties": { "nombre": "Camino sin nombre", "longitud_km": 0.37 }, "geometry": { "type": "LineString", "coordinates": [ [ -67.559, -54.1767 ], [ -67.5534, -54.1774 ] ] } },
{ "type": "Feature", "properties": { "nombre": "Camino sin nombre", "longitud_km": 4.88 }, "geometry": { "type": "LineString", "coordinates": [ [ -68.5891, -52.7525 ], [ -68.5608, -52.7674 ], [ -68.5442, -52.7859 ] ] } },
{ "type": "Feature", "properties": { "nombre": "Camino sin nombre", "longitud_km": 0.71 }, "geometry": { "type": "LineString", "coordinates": [ [ -68.5442, -52.7859 ], [ -68.5392, -52.7915 ] ] } },
{ "type": "Feature", "properties": { "nombre": "Camino sin nombre", "longitud_km": 4.76 }, "geometry": { "type": "LineString", "coordinates": [ [ -68.6067, -52.7785 ], [ -68.5992, -52.7762 ], [ -68.5425, -52.7916 ] ] } },
{ "type": "Feature", "properties": { "nombre": "Camino sin nombre", "longitud_km": 2.35 }, "geometry": { "type": "LineString", "coordinates": [ [ -68.5425, -52.7916 ], [ -68.5077, -52.7904 ] ] } },
{ "type": "Feature", "properties": { "nombre": "Camino sin nombre", "longitud_km": 11.75 }, "geometry": { "type": "LineString", "coordinates": [ [ -68.5392, -52.7915 ], [ -68.4731, -52.869 ], [ -68.4711, -52.8807 ], [ -68.463, -52.8851 ] ] } },
{ "type": "Feature", "properties": { "nombre": "Camino sin nombre", "longitud_km": 18.84 }, "geometry": { "type": "LineString", "coordinates": [ [ -68.6089, -53.0526 ], [ -68.5912, -53.0532 ], [ -68.52, -53.0348 ], [ -68.5131, -53.0315 ], [ -68.5181, -53.0134 ], [ -68.4887, -53.0045 ], [ -68.4319, -52.9768 ], [ -68.3916, -52.9766 ] ] } },
{ "type": "Feature", "properties": { "nombre": "Camino sin nombre", "longitud_km": 6.51 }, "geometry": { "type": "LineString", "coordinates": [ [ -68.6089, -53.1086 ], [ -68.5763, -53.1413 ], [ -68.5427, -53.1435 ] ] } },
{ "type": "Feature", "properties": { "nombre": "Camino sin nombre", "longitud_km": 7.28 }, "geometry": { "type": "LineString", "coordinates": [ [ -68.1829, -53.4306 ], [ -68.0788, -53.4105 ] ] } },
{ "type": "Feature", "properties": { "nombre": "Camino sin nombre", "longitud_km": 8.78 }, "geometry": { "type": "LineString", "coordinates": [ [ -68.2973, -53.4697 ], [ -68.2589, -53.4547 ], [ -68.2089, -53.4434 ], [ -68.1964, -53.4347 ], [ -68.1827, -53.4343 ] ] } },
{ "type": "Feature", "properties": { "nombre": "Camino sin nombre", "longitud_km": 3.39 }, "geometry": { "type": "LineString", "coordinates": [ [ -68.2973, -53.4697 ], [ -68.3289, -53.4457 ] ] } },
{ "type": "Feature", "properties": { "nombre": "Camino sin nombre", "longitud_km": 6.33 }, "geometry": { "type": "LineString", "coordinates": [ [ -68.3846, -53.4925 ], [ -68.2973, -53.4697 ] ] } },
{ "type": "Feature", "properties": { "nombre": "Camino sin nombre", "longitud_km": 10.54 }, "geometry": { "type": "LineString", "coordinates": [ [ -68.528, -53.5013 ], [ -68.4961, -53.5051 ], [ -68.4848, -53.4995 ], [ -68.4479, -53.5107 ], [ -68.3846, -53.4925 ] ] } },
{ "type": "Feature", "properties": { "nombre": "Camino sin nombre", "longitud_km": 3.37 }, "geometry": { "type": "LineString", "coordinates": [ [ -68.1006, -53.5005 ], [ -68.0813, -53.5286 ] ] } },
{ "type": "Feature", "properties": { "nombre": "Camino sin nombre", "longitud_km": 19.46 }, "geometry": { "type": "LineString", "coordinates": [ [ -68.2973, -53.4697 ], [ -68.2894, -53.4807 ], [ -68.2289, -53.503 ], [ -68.2255, -53.5134 ], [ -68.3017, -53.5323 ], [ -68.3822, -53.542 ], [ -68.3901, -53.5454 ], [ -68.3904, -53.5513 ] ] } },
{ "type": "Feature", "properties": { "nombre": "Camino sin nombre", "longitud_km": 22.09 }, "geometry": { "type": "LineString", "coordinates": [ [ -68.2385, -53.4998 ], [ -68.4716, -53.5416 ], [ -68.5599, -53.551 ] ] } },
{ "type": "Feature", "properties": { "nombre": "Camino sin nombre", "longitud_km": 9.22 }, "geometry": { "type": "LineString", "coordinates": [ [ -68.2669, -53.5728 ], [ -68.2373, -53.547 ], [ -68.1897, -53.5218 ], [ -68.1722, -53.5308 ] ] } },
{ "type": "Feature", "properties": { "nombre": "Camino sin nombre", "longitud_km": 8.77 }, "geometry": { "type": "LineString", "coordinates": [ [ -68.3904, -53.5513 ], [ -68.3419, -53.5613 ], [ -68.2925, -53.5617 ], [ -68.2669, -53.5728 ] ] } },
{ "type": "Feature", "properties": { "nombre": "Camino sin nombre", "longitud_km": 10.37 }, "geometry": { "type": "LineString", "coordinates": [ [ -68.3904, -53.5513 ], [ -68.3819, -53.5964 ], [ -68.3978, -53.6433 ] ] } },
{ "type": "Feature", "properties": { "nombre": "Camino sin nombre", "longitud_km": 12.3 }, "geometry": { "type": "LineString", "coordinates": [ [ -68.1163, -53.6717 ], [ -68.0276, -53.661 ], [ -67.9703, -53.6651 ], [ -67.9371, -53.6758 ] ] } },
{ "type": "Feature", "properties": { "nombre": "Camino sin nombre", "longitud_km": 16.48 }, "geometry": { "type": "LineString", "coordinates": [ [ -68.2669, -53.5728 ], [ -68.221, -53.5913 ], [ -68.1383, -53.6116 ], [ -68.1294, -53.6238 ], [ -68.1163, -53.6717 ] ] } },
{ "type": "Feature", "properties": { "nombre": "Camino sin nombre", "longitud_km": 4.74 }, "geometry": { "type": "LineString", "coordinates": [ [ -68.5573, -53.6611 ], [ -68.5664, -53.6457 ], [ -68.5677, -53.6324 ], [ -68.5539, -53.6224 ] ] } },
{ "type": "Feature", "properties": { "nombre": "Camino sin nombre", "longitud_km": 1.69 }, "geometry": { "type": "LineString", "coordinates": [ [ -68.1163, -53.6717 ], [ -68.1184, -53.6869 ] ] } },
{ "type": "Feature", "properties": { "nombre": "Camino sin nombre", "longitud_km": 9.22 }, "geometry": { "type": "LineString", "coordinates": [ [ -68.1184, -53.6869 ], [ -68.1389, -53.707 ], [ -68.1352, -53.7237 ], [ -68.1598, -53.7439 ], [ -68.1654, -53.7612 ] ] } },
{ "type": "Feature", "properties": { "nombre": "Camino sin nombre", "longitud_km": 26.63 }, "geometry": { "type": "LineString", "coordinates": [ [ -68.1654, -53.7612 ], [ -68.2003, -53.7615 ], [ -68.2203, -53.7569 ], [ -68.2258, -53.7474 ], [ -68.2366, -53.745 ], [ -68.2645, -53.7438 ], [ -68.2725, -53.75 ], [ -68.3038, -53.7371 ], [ -68.3187, -53.7478 ], [ -68.334, -53.7329 ], [ -68.3795, -53.7151 ], [ -68.3891, -53.6983 ], [ -68.4121, -53.6912 ], [ -68.426, -53.6737 ], [ -68.4536, -53.6727 ], [ -68.4646, -53.6661 ] ] } },
{ "type": "Feature", "properties": { "nombre": "Camino sin nombre", "longitud_km": 16.1 }, "geometry": { "type": "LineString", "coordinates": [ [ -68.1654, -53.7612 ], [ -68.1636, -53.7672 ], [ -68.155, -53.7713 ], [ -68.0718, -53.7853 ], [ -67.9985, -53.7923 ], [ -67.9517, -53.7913 ], [ -67.9393, -53.7859 ] ] } },
{ "type": "Feature", "properties": { "nombre": "Camino sin nombre", "longitud_km": 7.14 }, "geometry": { "type": "LineString", "coordinates": [ [ -67.6851, -53.8082 ], [ -67.7152, -53.8159 ], [ -67.7609, -53.8516 ] ] } },
{ "type": "Feature", "properties": { "nombre": "Camino sin nombre", "longitud_km": 8.14 }, "geometry": { "type": "LineString", "coordinates": [ [ -67.672, -53.8062 ], [ -67.6721, -53.8109 ], [ -67.6816, -53.8159 ], [ -67.6681, -53.8206 ], [ -67.6639, -53.8307 ], [ -67.689, -53.8691 ] ] } },
{ "type": "Feature", "properties": { "nombre": "Camino sin nombre", "longitud_km": 9.69 }, "geometry": { "type": "LineString", "coordinates": [ [ -67.6927, -54.1579 ], [ -67.6599, -54.1543 ], [ -67.6393, -54.1598 ], [ -67.6325, -54.1667 ], [ -67.5965, -54.1668 ], [ -67.5772, -54.1757 ], [ -67.559, -54.1767 ] ] } },
{ "type": "Feature", "properties": { "nombre": "Camino sin nombre", "longitud_km": 3.84 }, "geometry": { "type": "LineString", "coordinates": [ [ -67.2389, -54.1767 ], [ -67.213, -54.1895 ], [ -67.2161, -54.204 ] ] } },
{ "type": "Feature", "properties": { "nombre": "Camino sin nombre", "longitud_km": 24.75 }, "geometry": { "type": "LineString", "coordinates": [ [ -68.466, -53.6661 ], [ -68.4628, -53.6749 ], [ -68.4738, -53.679 ], [ -68.4697, -53.6858 ], [ -68.4751, -53.6923 ], [ -68.4647, -53.7149 ], [ -68.4733, -53.7514 ], [ -68.4986, -53.7702 ], [ -68.4946, -53.7935 ], [ -68.499, -53.8086 ], [ -68.5047, -53.8255 ], [ -68.5314, -53.838 ], [ -68.5318, -53.8688 ] ] } },
{ "type": "Feature", "properties": { "nombre": "Camino sin nombre", "longitud_km": 5.05 }, "geometry": { "type": "LineString", "coordinates": [ [ -68.5592, -53.8416 ], [ -68.5411, -53.836 ], [ -68.5318, -53.8688 ] ] } },
{ "type": "Feature", "properties": { "nombre": "Camino sin nombre", "longitud_km": 4.01 }, "geometry": { "type": "LineString", "coordinates": [ [ -67.6129, -53.9032 ], [ -67.6004, -53.9169 ], [ -67.6031, -53.9265 ], [ -67.6177, -53.9329 ] ] } },
{ "type": "Feature", "properties": { "nombre": "Camino sin nombre", "longitud_km": 3.61 }, "geometry": { "type": "LineString", "coordinates": [ [ -68.5318, -53.8688 ], [ -68.5261, -53.9011 ] ] } },
{ "type": "Feature", "properties": { "nombre": "Camino sin nombre", "longitud_km": 20.6 }, "geometry": { "type": "LineString", "coordinates": [ [ -67.5143, -53.9434 ], [ -67.55, -53.9258 ], [ -67.5796, -53.8945 ], [ -67.5911, -53.8641 ], [ -67.5889, -53.8481 ], [ -67.5818, -53.8366 ], [ -67.66, -53.8065 ], [ -67.672, -53.8062 ] ] } },
{ "type": "Feature", "properties": { "nombre": "Camino sin nombre", "longitud_km": 5.1 }, "geometry": { "type": "LineString", "coordinates": [ [ -68.5338, -54.016 ], [ -68.4566, -54.0212 ] ] } },
{ "type": "Feature", "properties": { "nombre": "Camino sin nombre", "longitud_km": 4.34 }, "geometry": { "type": "LineString", "coordinates": [ [ -67.6512, -54.076 ], [ -67.6414, -54.0793 ], [ -67.6357, -54.0877 ], [ -67.6239, -54.0871 ], [ -67.6, -54.0955 ] ] } },
{ "type": "Feature", "properties": { "nombre": "Camino sin nombre", "longitud_km": 1.51 }, "geometry": { "type": "LineString", "coordinates": [ [ -67.262, -54.1491 ], [ -67.2654, -54.1357 ] ] } },
{ "type": "Feature", "properties": { "nombre": "Camino sin nombre", "longitud_km": 0.58 }, "geometry": { "type": "LineString", "coordinates": [ [ -67.2516, -54.1618 ], [ -67.2518, -54.167 ] ] } },
{ "type": "Feature", "properties": { "nombre": "Camino sin nombre", "longitud_km": 24.38 }, "geometry": { "type": "LineString", "coordinates": [ [ -67.9707, -54.0512 ], [ -67.9665, -54.0555 ], [ -67.9469, -54.0487 ], [ -67.9068, -54.0604 ], [ -67.8814, -54.076 ], [ -67.8696, -54.0923 ], [ -67.853, -54.0966 ], [ -67.8445, -54.1096 ], [ -67.8211, -54.1276 ], [ -67.7782, -54.1363 ], [ -67.771, -54.1479 ], [ -67.7377, -54.1467 ], [ -67.7147, -54.1579 ], [ -67.6949, -54.1595 ] ] } },
{ "type": "Feature", "properties": { "nombre": "Camino sin nombre", "longitud_km": 13.9 }, "geometry": { "type": "LineString", "coordinates": [ [ -68.5338, -54.016 ], [ -68.542, -54.0356 ], [ -68.5538, -54.048 ], [ -68.5483, -54.0606 ], [ -68.56, -54.0718 ], [ -68.5613, -54.0816 ], [ -68.5743, -54.0889 ], [ -68.5759, -54.1056 ], [ -68.5816, -54.1123 ], [ -68.5793, -54.1176 ], [ -68.5907, -54.1301 ] ] } },
{ "type": "Feature", "properties": { "nombre": "Camino sin nombre", "longitud_km": 10.93 }, "geometry": { "type": "LineString", "coordinates": [ [ -67.559, -54.1767 ], [ -67.5593, -54.1811 ], [ -67.5293, -54.2024 ], [ -67.5149, -54.2079 ], [ -67.5054, -54.2007 ], [ -67.4896, -54.207 ], [ -67.468, -54.2044 ], [ -67.4404, -54.2086 ], [ -67.4358, -54.2142 ] ] } },
{ "type": "Feature", "properties": { "nombre": "Camino sin nombre", "longitud_km": 3.08 }, "geometry": { "type": "LineString", "coordinates": [ [ -68.3332, -54.1788 ], [ -68.3136, -54.1868 ], [ -68.3099, -54.1967 ], [ -68.3127, -54.1999 ] ] } },
{ "type": "Feature", "properties": { "nombre": "Camino sin nombre", "longitud_km": 0.9 }, "geometry": { "type": "LineString", "coordinates": [ [ -67.672, -53.8062 ], [ -67.6851, -53.8082 ] ] } },
{ "type": "Feature", "properties": { "nombre": "Camino sin nombre", "longitud_km": 6.97 }, "geometry": { "type": "LineString", "coordinates": [ [ -68.3289, -53.4457 ], [ -68.2836, -53.3892 ] ] } },
{ "type": "Feature", "properties": { "nombre": "Camino sin nombre", "longitud_km": 6.82 }, "geometry": { "type": "LineString", "coordinates": [ [ -68.5503, -52.7284 ], [ -68.5551, -52.7415 ], [ -68.5504, -52.7475 ], [ -68.5545, -52.7535 ], [ -68.5526, -52.7604 ], [ -68.5214, -52.7807 ] ] } },
{ "type": "Feature", "properties": { "nombre": "Camino sin nombre", "longitud_km": 1.42 }, "geometry": { "type": "LineString", "coordinates": [ [ -68.5214, -52.7807 ], [ -68.5077, -52.7904 ] ] } },
{ "type": "Feature", "properties": { "nombre": "Camino sin nombre", "longitud_km": 14.66 }, "geometry": { "type": "LineString", "coordinates": [ [ -68.5077, -52.7904 ], [ -68.4723, -52.8252 ], [ -68.4645, -52.841 ], [ -68.411, -52.8607 ], [ -68.4505, -52.8882 ] ] } },
{ "type": "Feature", "properties": { "nombre": "Camino sin nombre", "longitud_km": 7.7 }, "geometry": { "type": "LineString", "coordinates": [ [ -68.2836, -53.3892 ], [ -68.2625, -53.3443 ], [ -68.2683, -53.3221 ] ] } },
{ "type": "Feature", "properties": { "nombre": "Camino sin nombre", "longitud_km": 1.82 }, "geometry": { "type": "LineString", "coordinates": [ [ -68.5275, -54.0001 ], [ -68.5338, -54.016 ] ] } },
{ "type": "Feature", "properties": { "nombre": "Camino sin nombre", "longitud_km": 12.49 }, "geometry": { "type": "LineString", "coordinates": [ [ -67.3015, -54.3515 ], [ -67.3136, -54.3736 ], [ -67.3045, -54.3968 ], [ -67.2586, -54.4258 ], [ -67.2369, -54.4267 ], [ -67.2168, -54.421 ] ] } },
{ "type": "Feature", "properties": { "nombre": "Camino sin nombre", "longitud_km": 5.38 }, "geometry": { "type": "LineString", "coordinates": [ [ -66.7761, -54.266 ], [ -66.7913, -54.2652 ], [ -66.7995, -54.2697 ], [ -66.8209, -54.2663 ], [ -66.8261, -54.2534 ], [ -66.8193, -54.2482 ] ] } },
{ "type": "Feature", "properties": { "nombre": "Camino sin nombre", "longitud_km": 8.18 }, "geometry": { "type": "LineString", "coordinates": [ [ -67.2132, -54.2973 ], [ -67.2309, -54.2993 ], [ -67.2579, -54.3152 ], [ -67.278, -54.3159 ], [ -67.2853, -54.3214 ], [ -67.2952, -54.3423 ] ] } },
{ "type": "Feature", "properties": { "nombre": "Camino sin nombre", "longitud_km": 2.27 }, "geometry": { "type": "LineString", "coordinates": [ [ -68.3411, -54.8105 ], [ -68.3703, -54.799 ] ] } },
{ "type": "Feature", "properties": { "nombre": "Camino sin nombre", "longitud_km": 1.98 }, "geometry": { "type": "LineString", "coordinates": [ [ -67.7253, -53.7874 ], [ -67.699, -53.7787 ] ] } },
{ "type": "Feature", "properties": { "nombre": "Camino sin nombre", "longitud_km": 2.17 }, "geometry": { "type": "LineString", "coordinates": [ [ -67.7253, -53.7874 ], [ -67.7035, -53.7728 ] ] } },
{ "type": "Feature", "properties": { "nombre": "Camino sin nombre", "longitud_km": 0.72 }, "geometry": { "type": "LineString", "coordinates": [ [ -67.699, -53.7787 ], [ -67.7035, -53.7728 ] ] } },
{ "type": "Feature", "properties": { "nombre": "Camino sin nombre", "longitud_km": 3.47 }, "geometry": { "type": "LineString", "coordinates": [ [ -67.699, -53.7787 ], [ -67.6858, -53.7957 ], [ -67.6851, -53.8082 ] ] } },
{ "type": "Feature", "properties": { "nombre": "Camino sin nombre", "longitud_km": 4.42 }, "geometry": { "type": "LineString", "coordinates": [ [ -67.7781, -53.8095 ], [ -67.7501, -53.8041 ], [ -67.7253, -53.7874 ] ] } },
{ "type": "Feature", "properties": { "nombre": "Camino sin nombre", "longitud_km": 3.77 }, "geometry": { "type": "LineString", "coordinates": [ [ -67.8073, -53.8257 ], [ -67.8115, -53.8209 ], [ -67.8147, -53.7925 ] ] } }
]
}
